Name,Category,Description,Website,Email,Phone,Address,City,State,Zip,Source_URL
1 Smokin Ash Hole,,,http://www.thevoiceofyourcustomer.com/,Email available (Cloudflare protected),513-679-7751,100 South Cooper Avenue,Cincinnati,OH,45215,https://thevoiceofblackcincinnati.com/black-owned-business/1-smokin-ash-hole/
6 'N The Mornin',,,https://www.6nthemornin.com/,Email available (Cloudflare protected),513-221-0510 ,1535 Madison Road,Cincinnati,OH,45206,https://thevoiceofblackcincinnati.com/black-owned-business/6-n-the-mornin/
A Better You Counseling,,,https://abetterucounseling.com/,Email available (Cloudflare protected),513-294-8330,260 Northland Blvd,Cincinnati,OH,45246,https://thevoiceofblackcincinnati.com/black-owned-business/a-better-you-counseling/
A Crystal Mind,,,https://www.acrystalmind.com,Email available (Cloudflare protected),513-923-6336,4015 Executive Park Dr.,Cincinnati,OH,45241,https://thevoiceofblackcincinnati.com/black-owned-business/a-crystal-mind-mental-health/
A. Lowe Creative Photography,,,http://www.alowephoto.biz/,Email available (Cloudflare protected),513-921-5179,748 Elberon Ave,Cincinnati,OH,45205,https://thevoiceofblackcincinnati.com/black-owned-business/a-lowe-creative-photography/
A Mirage Beauty Salon,,,https://amiragebeautysalon.com/,Email available (Cloudflare protected),513-961-4464,1016 E McMillan St,Cincinnati,OH,45206,https://thevoiceofblackcincinnati.com/black-owned-business/a-mirage-beauty-salon/
A Mother's Touch Cakes,,,https://www.facebook.com/amotherstouchcakes/,Email available (Cloudflare protected),513-225-4823,1801 Race Street,Cincinnati,OH,45202,https://thevoiceofblackcincinnati.com/black-owned-business/a-mothers-touch-cakes/
A Place 4 Seniors,,,https://www.aplace4seniors.org/index.html,Email available (Cloudflare protected),513-931-2747,40 Eswin Street,Cincinnat,OH,45218,https://thevoiceofblackcincinnati.com/black-owned-business/a-place-4-seniors/
A.R.T. Art Resource Team,,,https://www.artresourceteam.com/,Email available (Cloudflare protected),513-662-1998,506 Wyoming Avenue,Cincinnati,OH,45215,https://thevoiceofblackcincinnati.com/black-owned-business/a-r-t-art-resource-team/
A Sound Mind Counseling,,,https://www.asoundmindcounseling.com/,Email available (Cloudflare protected),513-948-0023​,203 E. Galbraith Road,Cincinnati,OH,45216,https://thevoiceofblackcincinnati.com/black-owned-business/a-sound-mind-counseling/
A Touch of Class Cleaning,,,http://www.atouchofclassclean.com/,Email available (Cloudflare protected),513-293-7250,122 S. Wayne Avenue,Cincinnati,OH,45215,https://thevoiceofblackcincinnati.com/black-owned-business/a-touch-of-class-cleaning/
ABEL Commercial Building Systems,,,https://abelbuildingsystems.com/,Email available (Cloudflare protected),513-772-0401,47 Tech View Dr,Cincinnati,OH,45215,https://thevoiceofblackcincinnati.com/black-owned-business/abel-building-systems/
Abiona Hair Design,,,https://www.facebook.com/bionastyle/,Email available (Cloudflare protected),513-371-8072,1817 W. Galbraith Ave,Cincinnati,OH,45239,https://thevoiceofblackcincinnati.com/black-owned-business/abiona-hair-design/
Acuity Services LLC,,,http://www.acuityservices.info,Email available (Cloudflare protected),513-376-8035,1114 W Kemper Rd,Cincinnati,OH,45240,https://thevoiceofblackcincinnati.com/black-owned-business/acuity-services/
Adanech Corporation In-Home Care Agency,,,http://www.adanechcorporation.com,Email available (Cloudflare protected),513-538-5015,3284 North Bend Road Suite 205,Cincinnati,OH,45239,https://thevoiceofblackcincinnati.com/black-owned-business/adanech-corporation/
Adrienne’s Love: Full-Spectrum Doula Support & Organic Products,,,https://www.adrienneslove.com/,Email available (Cloudflare protected),513-293-1438,P.O. Box 18483,Fairfield,OH,45018,https://thevoiceofblackcincinnati.com/black-owned-business/adriennes-love-full-spectrum-doula-support/
Advanced Mechanical Insulators,,,http://aitinsulation.com/ami/,Email available (Cloudflare protected),513-733-4248,6071 Branch Hill Guinea Pike,Milford,OH,45150,https://thevoiceofblackcincinnati.com/black-owned-business/advanced-mechanical-insulators/
Afromeals Cooking Classes and Catering,,,https://afromeals.com/,Email available (Cloudflare protected),513-783-1955,1719 Elm Street,Cincinnati,OH,45202,https://thevoiceofblackcincinnati.com/black-owned-business/afromeals-cooking-classes-and-catering/
Ahbad's Lawn Care Service,,,https://www.ahbadslawncare.com/quote,Email available (Cloudflare protected),513-497-6556,9234 Neil Dr,Cincinnati,OH,45231,https://thevoiceofblackcincinnati.com/black-owned-business/ahbads-lawn-care-service/
AJ's Cheesesteaks,,,https://www.ajscheesesteak.com/,Email available (Cloudflare protected),513-836-9091,4301 Whetsel Avenue,Madisonville,OH,45227,https://thevoiceofblackcincinnati.com/black-owned-business/ajs-cheesesteaks/
Alabama Que BBQ Restaurant and Catering,,,http://alabama-q.com,Email available (Cloudflare protected),513-376-8781,2733 Short Vine St,Cincinnati,OH,45219,https://thevoiceofblackcincinnati.com/black-owned-business/alabama-que-bbq-restaurant-and-catering/
All About the Ahh Massage,,,http://www.thevoiceofyourcustomer.com/,Email available (Cloudflare protected),513-284-4243,7505 Reading Rd.,Cincinnati,OH,45237,https://thevoiceofblackcincinnati.com/black-owned-business/all-about-the-ahh-massage/
Alleylaidit Nails,,,http://alleylaidit.com,Email available (Cloudflare protected),513-349-8091,9454 Kenwood Road,Cincinnati,OH,45242,https://thevoiceofblackcincinnati.com/black-owned-business/alleylaidit/
Almost V'Gan Lounge,,,https://www.avlounge513.com/,Email available (Cloudflare protected),513-400-5922,34 E. Court Street,Cincinnati,,45202,https://thevoiceofblackcincinnati.com/black-owned-business/almost-vgan-lounge/
Altev Community Pharmacy,,,https://www.altevrx.com/,Email available (Cloudflare protected),513-776-4580,3559 Reading Road,Cincinnati,OH,45229,https://thevoiceofblackcincinnati.com/black-owned-business/altev-community-pharmacy/
American Compassionate Care,,,https://www.facebook.com/AmericanCompassionateCare/,Email available (Cloudflare protected),513-443-8156,5960 Glenway Ave,Cincinnati,OH,45238,https://thevoiceofblackcincinnati.com/black-owned-business/american-compassionate-care/
AMW Group,,,https://amwgroup.net,Email available (Cloudflare protected),513-394-7430,2639 Erie Avenue,Cincinnati,OH,45208,https://thevoiceofblackcincinnati.com/black-owned-business/amw-group/
Arabesque Dance Academy,,,https://www.adancecincy.com/,Email available (Cloudflare protected),513-401-5361,1500 Goodman Ave,Cincinnati,OH,45231,https://thevoiceofblackcincinnati.com/black-owned-business/arabesque-dance-academy/
Arch Realty,,,https://wearearchrealty.com/,Email available (Cloudflare protected),513-200-6317,PO Box 31210,Cincinnati,OH,45231,https://thevoiceofblackcincinnati.com/black-owned-business/arch-realty/
Art By Autumn M.,,,https://www.allcheri.com/,Email available (Cloudflare protected),513-443-8152,1850 Harmon Drive,West Chester,OH,45215,https://thevoiceofblackcincinnati.com/black-owned-business/art-by-autumn-m/
Art of Fitness,,,https://www.facebook.com/theartoffitness24/,Email available (Cloudflare protected),513-430-6362,6630 Hamilton Avenue,Cincinnati,OH,45224,https://thevoiceofblackcincinnati.com/black-owned-business/art-of-fitness/
"Arthur W. Harmon, Jr. Attorney at Law",,,https://harmonattorney.com,Email available (Cloudflare protected),513-793-1991,8044 Montgomery Rd Ste 700,Cincinnati,OH,45236,https://thevoiceofblackcincinnati.com/black-owned-business/arthur-w-harmon-jr-attorney-at-law/
Artistry by Ronnie,,,https://www.facebook.com/ArtistrybyRonnie/,Email available (Cloudflare protected),513-889-7885,5202 Montgomery Road,Cincinnati,OH,45212,https://thevoiceofblackcincinnati.com/black-owned-business/artistry-by-ronnie/
Asé Holistic Health Service,,,https://www.asesadaqa.com/,Email available (Cloudflare protected),513-707-8073,20 High Street Suite 306,Hamilton,OH,45011,https://thevoiceofblackcincinnati.com/black-owned-business/ase-holistic-health-service-school/
Assist Financial Group,,,https://assistfinancialgroup.com/,Email available (Cloudflare protected),513-825-6847,7812 Hamilton Avenue,Cincinnati,OH,45231,https://thevoiceofblackcincinnati.com/black-owned-business/assist-financial-group-llc/
ATMOS 360 Manufacturing,,,http://www.atmos360.com/,Email available (Cloudflare protected),513-889-5069,4690 Interstate Dr Suite A,Cincinnati,OH,45246,https://thevoiceofblackcincinnati.com/black-owned-business/atmos-360-manufacturing/
Avi Luxe Event Planning,,,https://aviluxeevents.com/,Email available (Cloudflare protected),(513) 549-4830,9768 Deer Track Road,West Chester,OH,45069,https://thevoiceofblackcincinnati.com/black-owned-business/avi-luxe-events/
AWA Business Corporation,,,https://awa-construction.com/,Email available (Cloudflare protected),513-579-8333,700 W Pete Rose Way,Cincinnati,OH,45203,https://thevoiceofblackcincinnati.com/black-owned-business/awa-business-corporation/
Axiom Flooring Enterprises,,,http://www.axiomflooring.com/,Email available (Cloudflare protected),513-645-2380,10737 Medallion Drive,Cincinnati,OH,45241,https://thevoiceofblackcincinnati.com/black-owned-business/axiom-flooring-enterprises-llc/
B & Z Alliance Insurance,,,https://www.bzalliance.com,Email available (Cloudflare protected),513-436-1897,5229 Secretariat Dr,Morrow,OH,45152,https://thevoiceofblackcincinnati.com/black-owned-business/b-z-alliance-insurance/
B7 Cleaning Services/DB3 Solutions,,,https://www.b7service.com/,Email available (Cloudflare protected),513-410-8411,"250 E. 5th Street, 15th Floor",Cincinnati,OH,45202,https://thevoiceofblackcincinnati.com/black-owned-business/b7-services/
Balizza Healthcare Solutions,,,http://www.Balizzahcs.org,Email available (Cloudflare protected),513-407-6561,"Harrison ave in Cheviot, Opposite the Post office",Cincinnati,OH,45211,https://thevoiceofblackcincinnati.com/black-owned-business/balizza-healthcare-solutions/
Bar 29,,,https://www.facebook.com/p/Bar-29-100041946136436/,Email available (Cloudflare protected),513-429-4044,4040 Reading Rd,Cincinnati,OH,45229,https://thevoiceofblackcincinnati.com/black-owned-business/bar-29/
Barcode Glam Studio,,,https://barcodeglam.com/pages/studio1,Email available (Cloudflare protected),513-294-8587,7817 Cooper Rd,Cincinnati,OH,45242,https://thevoiceofblackcincinnati.com/black-owned-business/barcode-glam-studio/
Barnes Real Estate,,,https://barnesrealestategroup.com/,Email available (Cloudflare protected),513-527-4660,6004 Madison Road,Cincinnati,OH,45227,https://thevoiceofblackcincinnati.com/black-owned-business/barnes-real-estate/
Battle Axe Construction,,,http://www.battleaxeconstruction.com/,Email available (Cloudflare protected),513-874-4695,11435 Sebring Drive,Cincinnati,OH,45240,https://thevoiceofblackcincinnati.com/black-owned-business/battle-axe-construction-llc/
BB’s Beauty Bar,,,https://www.facebook.com/bbsbeautybarllc/,Email available (Cloudflare protected),513-818-3043,6 Triangle Park Drive,Cincinnati,OH,45246,https://thevoiceofblackcincinnati.com/black-owned-business/bbs-beauty-bar/
Be Defined Training & Companion Care,,,https://www.bedefinedcare.com,Email available (Cloudflare protected),513-400-3793,1701 Mills Avenue,Norwood,OH,45212,https://thevoiceofblackcincinnati.com/black-owned-business/be-defined/
Beauty By A Monique,,,https://www.instagram.com/beautybyamonique/,Email available (Cloudflare protected),513-728-1044,10945 Reed Hartman Highway,Cincinnati,OH,45242,https://thevoiceofblackcincinnati.com/black-owned-business/beauty-by-a-monique/
Beauty By Trinity Professional Salon,,,https://www.beautybytrinitysalon.com,Email available (Cloudflare protected),513-405-7179,7710 Reading Road,"Cincinnati, OH",OH,45237,https://thevoiceofblackcincinnati.com/black-owned-business/beauty-by-trinity/
BeezFly Closet,,,https://beezflycloset.com/,Email available (Cloudflare protected),513-984-2359,2541 Cook Street,Cincinnati,OH,45214,https://thevoiceofblackcincinnati.com/black-owned-business/beezfly-closet/
Best Behavioral Health,,,https://www.bestbh.org/,Email available (Cloudflare protected),(513) 954-8005,2300 Montana Ave.,Cincinnati,OH,45211,https://thevoiceofblackcincinnati.com/black-owned-business/best-behavioral-health/
Best Thing Smokin' Food Truck,,,https://www.facebook.com/pages/category/Barbecue-Restaurant/Best-thing-smokin-878361462176526/,Email available (Cloudflare protected),513-638-9990,411 Kemper Road,Cincinnati,OH,45240,https://thevoiceofblackcincinnati.com/black-owned-business/bestthingsmokin/
Big Jays Place Caribbean Restaurant,,,http://bigjaysplace.com/,Email available (Cloudflare protected),513-493-4010,930 Hempstead Drive,Cincinnati,OH,45231,https://thevoiceofblackcincinnati.com/black-owned-business/big-jays-place/
Black & Bossie,,,https://blackandbossie.com/,Email available (Cloudflare protected),513-328-6581,242 W McMicken Ave,Cincinnati,OH,45214,https://thevoiceofblackcincinnati.com/black-owned-business/black-bossie/
Black Career Women's Network,,,https://bcwnetwork.com,Email available (Cloudflare protected),513-729-9724,114 Pike St,Covington,KY,41011,https://thevoiceofblackcincinnati.com/black-owned-business/black-career-womens-network/
Black Coffee,,,https://www.blackcoffeeblend.com/,Email available (Cloudflare protected),513-802-5228,824 Elm Street,Cincinnati,OH,45202,https://thevoiceofblackcincinnati.com/black-owned-business/black-coffee-lounge/
BlaCkOWned Outerwear,,,http://www.BlaCkOWned19xx.com/,Email available (Cloudflare protected),513-407-3496,822 Elm Street,Cincinnati,OH,45202,https://thevoiceofblackcincinnati.com/black-owned-business/black-owned-outerwear/
Phillips Travel,,,http://www.philtrips.com,Email available (Cloudflare protected),513-258-1180,1140 Indian Mound Drive,Milford,OH,45150,https://thevoiceofblackcincinnati.com/black-owned-business/black-owned-travel-phillips-cincinnati/
Black T.I.E. Protective Services,,,https://blacktieprotectiveservices.com/,Email available (Cloudflare protected),513-579-0906,1931 Freeman Avenue,Cincinnati,OH,45214,https://thevoiceofblackcincinnati.com/black-owned-business/black-t-i-e-protective-services/
Blossoms Florist,,,http://blossomsfloristinc.com,Email available (Cloudflare protected),513-531-7673,8711 Reading Road,Cincinnati,OH,45215,https://thevoiceofblackcincinnati.com/black-owned-business/blossoms-florist/
BlueRose Product Supply,,,http://www.bluerosesupply.com,Email available (Cloudflare protected),513-793-6763,1630 Sherman Avenue,Cincinnati,OH,45212,https://thevoiceofblackcincinnati.com/black-owned-business/bluerose-supply-company/
Blush The Event Loft,,,http://www.blushcincy.com,Email available (Cloudflare protected),513-836-9499,815 Race Street,Cincinnati,OH,45202,https://thevoiceofblackcincinnati.com/black-owned-business/blush-event-loft/
Bob Shropshire Sons Driving School,,,https://www.bobsshropshiresons.com/?redir_mode=301,Email available (Cloudflare protected),513-721-3915,806 Main Street,Cincinnati,OH,45202,https://thevoiceofblackcincinnati.com/black-owned-business/bob-shropshire-sons-llc/
Bodied by Rico,,,https://www.bodiedbyrico.com/,Email available (Cloudflare protected),513-667-9169,4865 Duck Creek Road,Cincinnati,,45227,https://thevoiceofblackcincinnati.com/black-owned-business/bodied-by-rico/
BOL Acai Bowls,,,https://www.bolonline.org/,Email available (Cloudflare protected),513-903-9636,8920 Cheviot Road,Cincinnati,OH,45251,https://thevoiceofblackcincinnati.com/black-owned-business/bol-acai-bowl-bar/
Bonita & Bello,,,https://www.bonitabello.com/,Email available (Cloudflare protected),513-546-8483,6809 Main Street,Cincinnati,OH,45244,https://thevoiceofblackcincinnati.com/black-owned-business/bonita-bello/
Boomtown Biscuits and Whiskey,,,https://www.boomtownbiscuitsandwhiskey.com/,Email available (Cloudflare protected),859-384-5910,9039 US-42,Union,KY,41091,https://thevoiceofblackcincinnati.com/black-owned-business/boomtown-biscuits-and-whiskey/
Bouchard's Bakery and Pasta,,,http://www.thevoiceofyourcustomer.com/,Email available (Cloudflare protected),(513) 381-5838,1801 Race Street,Cincinnati,OH,45202,https://thevoiceofblackcincinnati.com/black-owned-business/bouchards-bakery/
Boutique Business Solutions,,,https://www.boutiquebusinesssolutions.com/,Email available (Cloudflare protected),513-572-4662,P.O. Box 19648,Cincinnati,OH,45219,https://thevoiceofblackcincinnati.com/black-owned-business/boutique-business-solutions/
BRBS World,,,https://www.brbsworld.com/,Email available (Cloudflare protected),513-604-5425,"11851 Spiral Pass, Cincinnati, OH 45249",Cincinnati,OH,45249,https://thevoiceofblackcincinnati.com/black-owned-business/brbs-world-llc/
Breakthrough Lens,,,https://www.breakthroughlens.com,Email available (Cloudflare protected),513-299-8216,700 Wessel Drive #18735,Fairfield,OH,45018-0735,https://thevoiceofblackcincinnati.com/black-owned-business/breakthrough-lens/
BreakThru Business Solutions,,,https://www.btbsconsulting.com/,Email available (Cloudflare protected),513-884-4937,6619 Hollow Tree Court,Mason,OH,45040,https://thevoiceofblackcincinnati.com/black-owned-business/breakthru-business-solutions/
Brewster Pumping,,,http://brewsterpumping.com/,Email available (Cloudflare protected),513-559-0100,2335 Florence Avenue,Cincinnati,OH,45206,https://thevoiceofblackcincinnati.com/black-owned-business/brewster-pumping/
Brooks Printing & Promotions,,,http://www.brooksprintingandpromotions.com,Email available (Cloudflare protected),513-305-1415,P.O. Box 9692,Cincinnati,OH,45209,https://thevoiceofblackcincinnati.com/black-owned-business/brooks-printing-promotions/
Brow Therapy,,,http://facebook.com/browtherapybylynn,Email available (Cloudflare protected),513-462-5750,2337 Victory Parkway,Cincinnati,OH,45206,https://thevoiceofblackcincinnati.com/black-owned-business/brow-therapy/
BTH Construction and Design,,,http://bthconstruction.org/,Email available (Cloudflare protected),513-655-7987,906 Monmouth St,Newport,KY,41071,https://thevoiceofblackcincinnati.com/black-owned-business/bth-construction/
Bugatti's Ultra Lounge,,,https://bugattisultralounge.com/,Email available (Cloudflare protected),513-407-3859,340 Glensprings Drive,Springdale,OH,45246,https://thevoiceofblackcincinnati.com/black-owned-business/bugattis-ultra-lounge/
Caldwell Family Wellness,,,http://www.caldwellacupuncture.com,Email available (Cloudflare protected),513-834-8173,10999 Reed Hartman Hwy Suite 231,Blue Ash,OH,45242,https://thevoiceofblackcincinnati.com/black-owned-business/caldwell-family-wellness/
Call On An Angel Salon,,,https://callonanangel.com/,Email available (Cloudflare protected),513-204-9054,"516 Linn Street, Suite 404",Cincinnati,OH,45203,https://thevoiceofblackcincinnati.com/black-owned-business/call-on-an-angel/
Calming Souls Massage,,,http://www.calmingsoulsmassage.com/,Email available (Cloudflare protected),513-549-1568,7505 Reading Road,Cincinnati,OH,45237,https://thevoiceofblackcincinnati.com/black-owned-business/calming-souls-massage/
Catherine's Good Eats Soul Food Kitchen,,,https://dinercincinnati.com/,Email available (Cloudflare protected),513-873-4521,122 W. Wyoming Avenue,Cincinnati,OH,45236,https://thevoiceofblackcincinnati.com/black-owned-business/catherines-good-eats/
Chamaele Herbs and Superfoods,,,https://www.productsbychamaele.com/,Email available (Cloudflare protected),513-970-6769,1719 Elm Street,Cincinnati,OH,45214,https://thevoiceofblackcincinnati.com/black-owned-business/chamaele/
Chamoda's Candy Cafe,,,https://chamodascandycafe.ecwid.com/,Email available (Cloudflare protected),513-782-0977,11512 Chester Road,Cincinnati,OH,45246,https://thevoiceofblackcincinnati.com/black-owned-business/chamodas-candy-cafe/
The Che International Group,,,http://www.cheinternationalgroup.com,Email available (Cloudflare protected),(513) 229-7595,PO Box 507,Mason,OH,45040,https://thevoiceofblackcincinnati.com/black-owned-business/che-international-group/
Cheap Tree Service,,,https://www.home8.org/OH/Fairfield/Cheap-Tree-Service-Fairfield-OH/,Email available (Cloudflare protected),513-482-9600,"P.O. Box 18501 Fairfield, Ohio 45018",Cincinnati,OH,45018,https://thevoiceofblackcincinnati.com/black-owned-business/cheap-tree-service/
Chef Nem Kitchen,,,https://chefnemkitchen.com/,Email available (Cloudflare protected),513-602-8082,3305 Reading Road,Cincinnati,OH,45229,https://thevoiceofblackcincinnati.com/black-owned-business/chef-nem-kitchen/
Chico's Cheesecakes,,,https://www.chicoscheesecakes.com/,Email available (Cloudflare protected),513-802-2050,1719 Elm Street,Cincinnati,OH,45202,https://thevoiceofblackcincinnati.com/black-owned-business/chicos-cheesecakes/
The Cincinnati Black Theatre Company,,,https://cincinnatiblacktheatre.org/,Email available (Cloudflare protected),513- 241-6060,2237 Losantiville Ave,Cincinnati,OH,45237,https://thevoiceofblackcincinnati.com/black-owned-business/cincinnati-black-theatre-company/
Cincinnati Healing Arts,,,https://www.cincinnatihealingarts.com/,Email available (Cloudflare protected),513-376-3996,3559 Reading Rd,Cincinnati,OH,45229,https://thevoiceofblackcincinnati.com/black-owned-business/cincinnati-healing-arts/
Cincinnati Healthy Hair Pampering Parlor,,,https://www.vagaro.com/cintihealthyhair,Email available (Cloudflare protected),513-630-8238,3361 Westbourne Drive,Cincinnati,OH,45248,https://thevoiceofblackcincinnati.com/black-owned-business/cincinnati-healthy-hair-pampering-parlor/
Cincinnati Muscle Therapy,,,https://cincinnatimuscletherapyllc.com/,Email available (Cloudflare protected),513-208-3564,6240 Hamilton Ave.,Cincinnati,OH,45224,https://thevoiceofblackcincinnati.com/black-owned-business/cincinnati-muscle-therapy/
Cincy Tax & Notary Professionals,,,http://cincytaxnotaryprofessionalsllc.com/?utm_source=gmb&utm_medium=referral,Email available (Cloudflare protected),513-508-0066,22 Triangle Park Dr Ste2201i,Cincinnati,OH,45246,https://thevoiceofblackcincinnati.com/black-owned-business/cincy-tax-notary-professionals/
Cinema OTR,,,https://www.thecinemaotr.com/,Email available (Cloudflare protected),513-818-5058,1517 Vine Street,Cincinnati,OH,45202,https://thevoiceofblackcincinnati.com/black-owned-business/cinema-otr/
City Belle Fried Pies,,,https://www.citybellefriedpies.com/,Email available (Cloudflare protected),(513) 330-2242,1719 Elm St,Cincinnati,OH,45202,https://thevoiceofblackcincinnati.com/black-owned-business/city-belle-fried-pies/
Classy Chics Shoe Boutique,,,https://classychicsshoeboutique.com,Email available (Cloudflare protected),513-480-9650,905 W North Bend Road,Cincinnati,OH,45224,https://thevoiceofblackcincinnati.com/black-owned-business/classy-chics-shoe-boutique/
CM-GC Construction,,,http://www.cm-gc.com/,Email available (Cloudflare protected),513-675-9966,1810 Section Road,Cincinnati,OH,45237,https://thevoiceofblackcincinnati.com/black-owned-business/cm-gc/
Coach Xola Nicole,,,https://www.coachxolanicole.com/,Email available (Cloudflare protected),(513) 223-3508,800 Compton Rd. Unit 6,Cincinnati,OH,45231,https://thevoiceofblackcincinnati.com/black-owned-business/coach-xola-nicole/
Cocoa Books Publishing,,,https://www.cocoabooksstore.com,Email available (Cloudflare protected),(513) 313-4592,8465 Colerain ave,Cincinnati,OH,45239,https://thevoiceofblackcincinnati.com/black-owned-business/cocoa-books/
Collaborative Counseling Services,,,http://Collabcounselingnow.org,Email available (Cloudflare protected),513-801-7278,1100 Eaton Ave.,Hamilton,OH,45013,https://thevoiceofblackcincinnati.com/black-owned-business/collaborative-counseling-services/
Community Barbershop,,,https://communitybarbershopinc.com/,Email available (Cloudflare protected),513-886-1098,1339 Walnut St.,Cincinnati,,45202,https://thevoiceofblackcincinnati.com/black-owned-business/community-barbershop/
Community Lawn and Services,,,https://www.facebook.com/communitylawnandservicesllc?mibextid=ZbWKwL,Email available (Cloudflare protected),513-614-6659,PO Box 24223,Cincinnati,OH,45224,https://thevoiceofblackcincinnati.com/black-owned-business/community-lawn-and-services/
Compress CPR Training,,,https://www.facebook.com/profile.php?id=100039504624869,Email available (Cloudflare protected),(513) 549-1846,11427 Reed Hartman Highway,Cincinnati,OH,45241,https://thevoiceofblackcincinnati.com/black-owned-business/compress-cpr-and-first-aid-training/
Cora's Cakery,,,https://www.corascakery.org/,Email available (Cloudflare protected),513-497-9067,517 W 7th St.,Newport,KY,41071,https://thevoiceofblackcincinnati.com/black-owned-business/coras-cakery/
Cove 51 Night Club,,,https://www.facebook.com/cove51/,Email available (Cloudflare protected),513-283-0643,11473 Chester Road,Cincinnati,OH,45246,https://thevoiceofblackcincinnati.com/black-owned-business/cove-51/
Cream + Sugar Coffee House,,,https://www.creamandsugarcoffeehouse.com/,Email available (Cloudflare protected),513-731-0100,3546 Montgomery Rd,Cincinnati,OH,45207,https://thevoiceofblackcincinnati.com/black-owned-business/cream-sugar/
Creative Soul Studios Photography and Videography,,,https://creativesoul.studio,Email available (Cloudflare protected),(513) 498-8842,2701 Spring Grove Ave,Cincinnati,OH,45225,https://thevoiceofblackcincinnati.com/black-owned-business/creative-soul-studios/
Creekwood Commercial Energy Management,,,http://creekwoodenergy.com/,Email available (Cloudflare protected),513-448-0988,2692 Madison Road,Cincinnati,OH,45208,https://thevoiceofblackcincinnati.com/black-owned-business/creekwood-energy/
Crown Kids Healthy Hair Care,,,https://crownkidshair.com/,Email available (Cloudflare protected),513-313-0455,7100 Foundry Row Suite 288-13,Liberty Twp,OH,45069,https://thevoiceofblackcincinnati.com/black-owned-business/crown-kids-healthy-hair-care/
Cultural Wellness,,,https://myculturalwellness.com,Email available (Cloudflare protected),513-995-6790,P.O. Box 281,Amelia,OH,46102,https://thevoiceofblackcincinnati.com/black-owned-business/cultural-wellness/
Curvy Cardio Fitness Classes,,,https://www.facebook.com/curvycardio/,Email available (Cloudflare protected),513-427-3919,617 Clinton Springs Ave,Cincinnati,OH,45229,https://thevoiceofblackcincinnati.com/black-owned-business/curvy-cardio/
Cut & Blow Hair Salon,,,https://www.vagaro.com/cutandblowsalon/,Email available (Cloudflare protected),(513) 948-2400,8030 Reading Road,Cincinnati,OH,45237,https://thevoiceofblackcincinnati.com/black-owned-business/cut-blow/
Dada Smokes BBQ & Catering,,,http://dadasmokes.com/,Email available (Cloudflare protected),859-363-6133,517 W 7th Street,Newport,KY,41071,https://thevoiceofblackcincinnati.com/black-owned-business/dada-smokes-bbq-catering/
Darou Salam Restaurant,,,https://www.facebook.com/pages/Darou-Salam-Restaurant/115375481818431/,Email available (Cloudflare protected),513-681-3663,4163 Hamilton Ave,Cincinnati,OH,45223,https://thevoiceofblackcincinnati.com/black-owned-business/darou-salam-restaurant/
Dats Ole School Cookin,,,https://www.facebook.com/cafefoodforthesoul/,Email available (Cloudflare protected),513-578-4542‬,1719 Elm Street,Cincinnati,OH,45202,https://thevoiceofblackcincinnati.com/black-owned-business/dats-ole-school-cookin/
Davis Cookie Collection,,,http://www.daviscookiecollection.com,Email available (Cloudflare protected),513-242-2483,4926 Reading Road,Cincinnati,OH,45237,https://thevoiceofblackcincinnati.com/black-owned-business/davis-cookie-collection/
Dawson Cleaning Supplies LLC,,,https://dawsongreencleaningsupplies.com/,Email available (Cloudflare protected),(513) 964-0776,7523 Reading Road,Cincinnati,OH,45237,https://thevoiceofblackcincinnati.com/black-owned-business/dawson-cleaning-supplies/
Dee-Licious Pound Cakes,,,https://deeliciouspoundcakes.com/,Email available (Cloudflare protected),513-770-0947,9378 Mason Montgomery Road,Mason,OH,45040,https://thevoiceofblackcincinnati.com/black-owned-business/dee-licious-pound-cakes-llc/
Dentistry Details,,,https://www.dentistrydetailscincy.com/,Email available (Cloudflare protected),513-847-4692,8919 Brookside Ave,West Chester,OH,45069,https://thevoiceofblackcincinnati.com/black-owned-business/dentistry-details/
Dipped Sweets,,,https://mydippedsweets.com/,Email available (Cloudflare protected),513-687-3690,1719 Elm Street,Cincinnati,OH,45202,https://thevoiceofblackcincinnati.com/black-owned-business/dipped-sweets/
Diversion Private Investigations,,,http://www.diversioninvestigations.com/,Email available (Cloudflare protected),513-618-6440,11427 Reed Hartman Highway,Blue Ash,OH,45241,https://thevoiceofblackcincinnati.com/black-owned-business/diversion-investigations/
Divine Appetite Cafe,,,https://divineappetitecafe.menufy.com/,Email available (Cloudflare protected),513-777-2111,8982 Cincinnati Columbus Road,Cincinnati,OH,45069,https://thevoiceofblackcincinnati.com/black-owned-business/divine-appetite-cafe-and-catering/
dj.edits Editorial Services Company,,,http://yourwordsonlybetter.com,Email available (Cloudflare protected),513-417-2594,4248 Kirby Avenue,Cincinnati,OH,45223,https://thevoiceofblackcincinnati.com/black-owned-business/dj-edits/
DNK Architects,,,https://dnkarchitects.com/,Email available (Cloudflare protected),513-948-4146,2616 Central Parkway,Cincinnati,OH,45214,https://thevoiceofblackcincinnati.com/black-owned-business/dnk-architects/
Dot's Fine Shoe Repair,,,http://www.thevoiceofyourcustomer.com/,Email available (Cloudflare protected),513-242-4666,4813 Vine Street,Cincinnati,OH,45217,https://thevoiceofblackcincinnati.com/black-owned-business/dots-fine-shoe-repair/
Drip Coffee Bond Hill,,,https://dripcoffeebondhill.com/,Email available (Cloudflare protected),513-429-5446,4930 Reading Road,Cincinnati,OH,45237,https://thevoiceofblackcincinnati.com/black-owned-business/drip-coffee-lounge/
Dynamic Business Group,,,https://funding.wufoo.com/forms/dynamic-business-group-llc/,Email available (Cloudflare protected),513-582-9006,3650 Woodford Rd,Cincinnati,OH,45213,https://thevoiceofblackcincinnati.com/black-owned-business/dynamic-business-group/
Earth's Precious Jewels Literacy & Fitness Academy,,,https://earthspreciousjewels.wixsite.com/epjlfa,Email available (Cloudflare protected),513-319-0249,4600 Vine Street,Cincinnati,OH,45217,https://thevoiceofblackcincinnati.com/black-owned-business/earths-precious-jewels-cincinnati/
Eastern Personnel and Staffing Services,,,https://www.easternhires.com/,Email available (Cloudflare protected),513-421-4666,619 Central Avenue,Cincinnati,OH,45202,https://thevoiceofblackcincinnati.com/black-owned-business/eastern-personnel-services/
Eddie's Southern Style BBQ and Catering,,,http://eddiesbarbque.com/,Email available (Cloudflare protected),859-525-0771,8310 Dixie Hwy,Florence,KY,41042,https://thevoiceofblackcincinnati.com/black-owned-business/eddies-southern-style-bbq-and-catering/
"Edibles-n-Such, Inc. Catering",,,http://ediblesnsuch.com,Email available (Cloudflare protected),513-381-8390,6008 Wooster Pike,Cincinnati,OH,45227,https://thevoiceofblackcincinnati.com/black-owned-business/edibles-n-such/
Elevation Beauty,,,https://elevationbeautyllc.com/,Email available (Cloudflare protected),(513) 880-2107,2692 Madison Road,Cincinnati,OH,45208,https://thevoiceofblackcincinnati.com/black-owned-business/elevation-beauty/
Eleven/22 Vegan,,,https://www.eleven22vegan.com/,Email available (Cloudflare protected),513-721-0700,660 East McMillan Avenue,Cincinnati,OH,45206,https://thevoiceofblackcincinnati.com/black-owned-business/eleven-22-vegan/
Elite Kingdom Kids Childcare,,,https://www.facebook.com/growingthekingdom,Email available (Cloudflare protected),513-317-2552,97 Mulberry Street,Cincinnati,OH,45202,https://thevoiceofblackcincinnati.com/black-owned-business/elite-kingdom-kids/
Eliza Jane’s Online Bakeshop and Food Truck,,,https://www.ejsbakes.com,Email available (Cloudflare protected),(513) 823-9423,1811 Elm Street,Cincinnati,OH,45202,https://thevoiceofblackcincinnati.com/black-owned-business/eliza-janes-bakeshop/
Emerging Spirit Counseling Services,,,https://www.emergingspiritcounseling.com/,Email available (Cloudflare protected),513-788-1766,1882 Roosevelt Ave,Cincinnati,OH,45240,https://thevoiceofblackcincinnati.com/black-owned-business/emerging-spirit-counseling-services/
EMH Enterprises,,,https://www.facebook.com/cincinnaticommercialcleaning/,Email available (Cloudflare protected),513-550-1935,8230 Galbraith Point Lane,Cincinnati,OH,45231,https://thevoiceofblackcincinnati.com/black-owned-business/emh-enterprises-llc/
Empathy Home Healthcare,,,https://www.facebook.com/profile.php?id=100087660101320,Email available (Cloudflare protected),(513) 873-5668,7505 Reading Rd.,Cincinnati,OH,45237,https://thevoiceofblackcincinnati.com/black-owned-business/empathy-home-healthcare/
Encounter Wellness MHS,,,https://www.encounterwellnessmhs.com/,Email available (Cloudflare protected),513-682-3200,4932 Wunnenberg way STE B,West Chester,OH,45069,https://thevoiceofblackcincinnati.com/black-owned-business/encounter-wellness/
Environmental Safety Solutions,,,https://theessinc.com/,Email available (Cloudflare protected),513-825-2885,10045 Springfield Pike,Cincinnati,OH,45215,https://thevoiceofblackcincinnati.com/black-owned-business/environmental-and-safety-solutions-inc/
Epic Event Gallery,,,https://www.epiceventgallery.com,Email available (Cloudflare protected),513-224-0662,811 Race Street,Cincinnati,OH,45202,https://thevoiceofblackcincinnati.com/black-owned-business/epic-event-gallery/
Epiphany HR Solutions,,,http://www.epiphanyhrsolutions.com,Email available (Cloudflare protected),513-288-2302,10296 Springfield Pike,Cincinnati,OH,45215,https://thevoiceofblackcincinnati.com/black-owned-business/epiphany-hr-solutions/
Esoteric Brewing Company,,,https://esotericbrewing.com/,Email available (Cloudflare protected),513-214-1987,918 E McMillan Street,Cincinnati,OH,45206,https://thevoiceofblackcincinnati.com/black-owned-business/esoteric-brewing-company/
Eurie Realty,,,https://www.facebook.com/people/Eurie-Realty/100047312094858/,Email available (Cloudflare protected),513-271-0990,6008 Madison Rd,Cincinnati,OH,45227-1818,https://thevoiceofblackcincinnati.com/black-owned-business/eurie-realty/
Exklusive Jewels,,,http://www.exklusivejewels.com/,Email available (Cloudflare protected),513-913-9036,6123 Argus Road,Cincinnati,OH,45224,https://thevoiceofblackcincinnati.com/black-owned-business/exklusive-jewels-llc/
Exposure Best Photography,,,https://www.exposurebest.com,Email available (Cloudflare protected),513-833-5520,185 Magnolia Ave,Cincinnati,OH,45246,https://thevoiceofblackcincinnati.com/black-owned-business/exposure-best-photography/
Exquisite Events by Amanee,,,https://www.eventsbyamanee.com/,Email available (Cloudflare protected),513-926-2326,8216 Princeton Glendale Rd,West Chester,OH,45069,https://thevoiceofblackcincinnati.com/black-owned-business/exquisite-events-by-amanee/
Facility Management & Planning Services,,,https://www.fmpsllc.com/index.html,Email available (Cloudflare protected),513-706-2572,2218 Burnet Avenue,Cincinnati,OH,45219,https://thevoiceofblackcincinnati.com/black-owned-business/facility-management-planning-services/
Fast Track Training Center,,,https://www.fasttracktrainingllc.com/,Email available (Cloudflare protected),513-818-8128,1102-A West Kemper Road,Cincinnati,OH,45240,https://thevoiceofblackcincinnati.com/black-owned-business/fast-track-training-center/
Fill More Waste Less Zero Waste Company,,,https://fillmorewasteless.com/,Email available (Cloudflare protected),513-390-2873,1813 Elm Street,Cincinnati,OH,45202,https://thevoiceofblackcincinnati.com/black-owned-business/fill-more-waste-less/
FinanciallyU,,,https://financiallyu.com/,Email available (Cloudflare protected),513-341-8529,6238 Montgomery Road,Cincinnati,OH,45213,https://thevoiceofblackcincinnati.com/black-owned-business/financiallyu/
Fitness 1o1,,,https://www.fitness1o1.com/,Email available (Cloudflare protected),513-464-8980,7051 Yankee Road,Liberty Township,OH,45044,https://thevoiceofblackcincinnati.com/black-owned-business/fitness-1o1/
Flavors of the Isle Catering,,,https://www.flavorsoftheisle.com/,Email available (Cloudflare protected),513-301-0131,1807 Elm Street,Cincinnati,OH,45202,https://thevoiceofblackcincinnati.com/black-owned-business/flavors-of-the-isle/
Flex Fitness Personal Training Boutique,,,https://flexfitnesspersonaltrainingboutique.business.site/,Email available (Cloudflare protected),513-620-8383,9402 Towne Square Avenue,Blue Ash,OH,45242,https://thevoiceofblackcincinnati.com/black-owned-business/flex-fitness/
Fly by Nature,,,https://www.theflybynature.com/,Email available (Cloudflare protected),513-304-9924,1606 Race Street,Cincinnati,OH,45202,https://thevoiceofblackcincinnati.com/black-owned-business/fly-by-nature/
Frazier Homes,,,https://www.frazierhomes.com/,Email available (Cloudflare protected),513-889-4000,8366 Princeton Glendale Rd Suite B3,West Chester,OH,45069,https://thevoiceofblackcincinnati.com/black-owned-business/frazier-homes/
Freetown Pharmacy,,,https://www.facebook.com/profile.php?id=61565812835798,Email available (Cloudflare protected),(513) 376-7635,5082 Glencrossing Way,Cincinnati,OH,45238,https://thevoiceofblackcincinnati.com/black-owned-business/freetown-pharmacy/
Galerie on 12th Boutique Furniture Store,,,https://www.facebook.com/SouthBeachFurniture513?mibextid=ZbWKwL,Email available (Cloudflare protected),513-834-8833,522 East 12th Street,Cincinnati,OH,45202,https://thevoiceofblackcincinnati.com/black-owned-business/galerie-on-12th/
Game Time Budgeting,,,https://www.gametimebudgeting.com/,Email available (Cloudflare protected),513-813-3275,260 Northland Boulevard,Cincinnati,OH,45246,https://thevoiceofblackcincinnati.com/black-owned-business/game-time-budgeting/
Garden of Wellness Massage Therapy,,,https://www.massagebook.com/therapists/GardenOfWellness,Email available (Cloudflare protected),513-823-9355,432 Ray Norrish Drive,Cincinnati,OH,45246,https://thevoiceofblackcincinnati.com/black-owned-business/garden-of-wellness/
Glovon & Clovon Engineering Consulting,,,http://www.gncengr.com,Email available (Cloudflare protected),(513) 254-7124,"415 West Court Street, Suite E",Cincinnati,OH,45203,https://thevoiceofblackcincinnati.com/black-owned-business/glovon-clovon-engineering-consulting/
Good Brothas Bar and Grill,,,https://www.facebook.com/GoodBrothas6700/,Email available (Cloudflare protected),513-521-0919,6700 Savannah Ave,Cincinnati,OH,45239,https://thevoiceofblackcincinnati.com/black-owned-business/good-brothas-bar-and-grill/
GO(O)D Company Apparel,,,http://www.GoodCoApparel.com,Email available (Cloudflare protected),513-621-4663,7875 Montgomery Rd,Cincinnati,OH,45236,https://thevoiceofblackcincinnati.com/black-owned-business/good-company-apparel/
Goodie's Southern Style BBQ,,,https://goodiesbarbeque.com/,Email available (Cloudflare protected),(513) 264-1631,7440 Hamilton Ave,Cincinnati,OH,45231,https://thevoiceofblackcincinnati.com/black-owned-business/goodies-southern-style-bbq/
GPD Creative Agency,,,https://www.facebook.com/createwithgpd,Email available (Cloudflare protected),513-429-4554,6809 Main Street,Cincinnati,OH,45244,https://thevoiceofblackcincinnati.com/black-owned-business/gpd-creative-agency/
Grace + Grit Spa,,,http://www.graceandgritskin.com,Email available (Cloudflare protected),513-818-3010,6712 Montgomery Road,Cincinnati,OH,45236,https://thevoiceofblackcincinnati.com/black-owned-business/grace-grit-spa/
Grace Health Scrubs,,,http://www.gracehealthscrubs.com,Email available (Cloudflare protected),513-429-4184,,Cincinnati,OH,,https://thevoiceofblackcincinnati.com/black-owned-business/grace-health-scrubs-llc/
Graceful Grins Pediatric Dentistry,,,https://www.gracefulgrinspd.com,Email available (Cloudflare protected),513-824-8886,7915 E Kemper Rd,Cincinnati,OH,45249,https://thevoiceofblackcincinnati.com/black-owned-business/graceful-grins/
"Ground Zero Electric, LLC",,,http://www.thevoiceofyourcustomer.com/,Email available (Cloudflare protected),(513) 866-8685,311 Elm Street Suite 270-1590,Cincinnati,OH,45202,https://thevoiceofblackcincinnati.com/black-owned-business/ground-zero-electric/
GT Industrial Supply,,,http://www.gtindustrialsupply.com/,Email available (Cloudflare protected),513-771-7000,7775 East Kemper Road,Cincinnati,OH,45249,https://thevoiceofblackcincinnati.com/black-owned-business/gt-industrial-supply/
Gwen's Gleam,,,https://gwensgleamllc.com/,Email available (Cloudflare protected),513-276-5294,4588 Lakes Edge Apt 1,Chester,,45069,https://thevoiceofblackcincinnati.com/black-owned-business/gwens-gleam-llc/
Habesha Ethiopian Restaurant,,,https://sygebehiwot123.wixsite.com/habesharesturant,Email available (Cloudflare protected),513-429-4890,5070 Crookshank Rd,Cincinnati,OH,45238,https://thevoiceofblackcincinnati.com/black-owned-business/habesha-ethiopian-restaurant/
Hard Ta Knock Shoppe,,,https://www.facebook.com/HARD2KNOCKSHOPPE/,Email available (Cloudflare protected),513-221-4273,1327 Hopple St,Cincinnati,OH,45225,https://thevoiceofblackcincinnati.com/black-owned-business/hard-ta-knock-shop/
Have An Epiphany Event Planning,,,http://www.ihaveanepiphany.com,Email available (Cloudflare protected),513-818-3213,5876 Deerfield Road,Milford,OH,45150,https://thevoiceofblackcincinnati.com/black-owned-business/have-an-epiphany-llc/
Heads Up Trading Co.,,,https://headsuptc.com/,Email available (Cloudflare protected),513-580-8733,2701 Spring Grove Ave,Cincinnati,OH,45225,https://thevoiceofblackcincinnati.com/black-owned-business/heads-up-trading-co/
"Health Care Resources Plus, Inc.",,,https://healthcareresourcesplus.com,Email available (Cloudflare protected),513-954-0099,791 East McMillan Street,Cincinnati,OH,45206,https://thevoiceofblackcincinnati.com/black-owned-business/health-care-resources-plus-inc/
Hearts of Passion School of Learning,,,http://heartsofpassionschooloflearning.com,Email available (Cloudflare protected),513-787-0053,10999 Reed Hartman Highway,Cincinnati,OH,45242,https://thevoiceofblackcincinnati.com/black-owned-business/hearts-of-passion/
Herban Vegans,,,http://herbanvegans.com,Email available (Cloudflare protected),513-485-0241,3715 Madison Rd,Cincinnati,OH,45209,https://thevoiceofblackcincinnati.com/black-owned-business/herban-vegans-pan-cultural-cuisine/
Heroes Rise Street Dance Academy,,,https://www.heroesrisecincinnati.com/,Email available (Cloudflare protected),513-307-1749,4324 Homer ave. Cincinnati OH 45227,Madisonville,OH,45227,https://thevoiceofblackcincinnati.com/black-owned-business/heroes-rise-street-dance-academy/
Hightowers Petroleum Co.,,,https://www.hightowerspetroleum.com/,Email available (Cloudflare protected),513-423-4272,700 Walnut Street,Cincinnati,OH,45202,https://thevoiceofblackcincinnati.com/black-owned-business/hightowers-petroleum-co/
Honest Locksmiths,,,https://www.facebook.com/people/Honest-Locksmiths-LLC/100089484640677/,Email available (Cloudflare protected),513-673-0367,5632 View Pointe Drive,Cincinnati,OH,45213,https://thevoiceofblackcincinnati.com/black-owned-business/honest-locksmiths/
Honey Child Artisan Pops,,,https://www.honeychildpops.com,Email available (Cloudflare protected),513-800-0911,1719 Elm St.,Cincinnati,OH,45202,https://thevoiceofblackcincinnati.com/black-owned-business/honey-child-artisan-pops/
Humble Bee Childcare Learning Center,,,https://www.humblebeechildcare.com/,Email available (Cloudflare protected),513-671-2500,72 E Crescentville Rd,West Chester,OH,45246,https://thevoiceofblackcincinnati.com/black-owned-business/humblebee-childcare-learning-center/
Hydro Wellness and Detox,,,https://www.hydrowellnessanddetox.com/,Email available (Cloudflare protected),513-499-2302,311 Nilles Road,Fairfield,OH,45014,https://thevoiceofblackcincinnati.com/black-owned-business/hydro-wellness-and-detox/
Hygienic Cleaning Services,,,https://www.hygieniccleaningservice.com/,Email available (Cloudflare protected),513-353-8153,44310w eighth street apt 4B,Cincinnati,OH,45238,https://thevoiceofblackcincinnati.com/black-owned-business/hygienic-cleaning-services/
I Love to Agree Event Planning,,,http://ilovetoagree.com/,Email available (Cloudflare protected),513-678-0937,8721 Colerain Avenue,Colerain Township,OH,45251,https://thevoiceofblackcincinnati.com/black-owned-business/i-love-to-agree-llc/
Illustrious Cleaning Solutions LLC,,,https://sites.google.com/illustriouscleaningsolutions.com/home/about-us?authuser,Email available (Cloudflare protected),513-795-2415,PO Box 24454,Cincinnati,OH,45224,https://thevoiceofblackcincinnati.com/black-owned-business/illustrious-cleaning-solutions/
IMEC Training Complex,,,https://imec.me/,Email available (Cloudflare protected),513-824-2941,Helping youth and young athletes prepare for Division 1 sports and adults achieve their personal fitness goals,Lockland,OH,45215,https://thevoiceofblackcincinnati.com/black-owned-business/imec-training-complex/
"IMGBAT – Jewelry, Art & Engraving",,,https://imgbat.com/,Email available (Cloudflare protected),513-463-6290,25 Village Square,Glendale,OH,45246,https://thevoiceofblackcincinnati.com/black-owned-business/imgbat-2/
Indulju Relaxation Boutique,,,http://www.indulju.com,Email available (Cloudflare protected),513-888-1400,10748 Reading Road,Cincinnati,OH,45240,https://thevoiceofblackcincinnati.com/black-owned-business/indulju-relaxation-boutique/
"Innate Insights Counseling and Coaching,",,,https://headway.co/providers/kristin-vaughn-2?utm_source=pem&amp;utm_medium=direct_l,Email available (Cloudflare protected),(513) 426-6630,6809 Main St. #124,Cincinnati,OH,45244,https://thevoiceofblackcincinnati.com/black-owned-business/innate-insights-counseling-and-coaching/
Innovative Labor and Cleaning Services,,,https://www.facebook.com/InnovativeLaborandCleaning/,Email available (Cloudflare protected),513-981-1287,4903 Vine Street,Cincinnati,OH,45217,https://thevoiceofblackcincinnati.com/black-owned-business/innovative-labor-and-cleaning-services/
InoarG Yoga Studio,,,https://inoarg.com/,Email available (Cloudflare protected),513-407-3027,5827 Bramble Ave,Cincinnati,OH,45227,https://thevoiceofblackcincinnati.com/black-owned-business/inoarg/
Inspire Salon and Boutique,,,https://www.facebook.com/InspireSalonAndBoutique/,Email available (Cloudflare protected),513-541-5700,6120 Hamilton ave. College Hill business district,Cincinnati,OH,45224,https://thevoiceofblackcincinnati.com/black-owned-business/inspire-salon-and-boutique/
Inspired Fashion,,,https://www.inspiredfashion40.com,Email available (Cloudflare protected),(859) 360-1343,827 Madison Ave,Covington,KY,41011,https://thevoiceofblackcincinnati.com/black-owned-business/inspired-fashion/
Integrative Health and Sports Medicine,,,https://www.integrativesports.com/,Email available (Cloudflare protected),513-446-1906,9403 Kenwood Rd.,Blue Ash,OH,45242,https://thevoiceofblackcincinnati.com/black-owned-business/integrative-health-and-sports-medicine/
Invito Personal Chef,,,https://www.invitopersonalchef.com/,Email available (Cloudflare protected),513-746-8233,5501 Hamilton Ave,Cincinnati,OH,45223,https://thevoiceofblackcincinnati.com/black-owned-business/invito-personal-chef/
Island Frydays,,,https://www.islandfrydays.com/,Email available (Cloudflare protected),513-498-0680,5835 Hamilton Ave,Cincinnati,OH,45224,https://thevoiceofblackcincinnati.com/black-owned-business/island-frydays/
Jackson ILyas Therapy Solutions,,,https://www.psychologytoday.com/us/therapists/felisha-teanna-jackson-ilyas-muslimah-cincinnati-oh/1203071?msockid=2f59741b4b7f64853a5961ff4ad26502,Email available (Cloudflare protected),(513) 446-5048,PO Box 14634,Cincinnati,OH,45250,https://thevoiceofblackcincinnati.com/black-owned-business/jackson-ilyas/
Jakoba Consulting,,,http://www.jakobaconsulting.com,Email available (Cloudflare protected),513-652-5269,5660 Rapid Run Road,Cincinnati,OH,45238,https://thevoiceofblackcincinnati.com/black-owned-business/jakoba-consulting-llc/
Jamal Maxsam Consulting,,,http://jamalmaxsam.org,Email available (Cloudflare protected),513-986-5352,"621 S. Erie Blvd, Hamilton OH 45011",Hamilton,OH,45011,https://thevoiceofblackcincinnati.com/black-owned-business/jamal-maxsam/
Janel Lee Photography,,,https://janelleephotography.com,Email available (Cloudflare protected),513-549-0030,18 West 7th Street,Cincinnati,OH,45202,https://thevoiceofblackcincinnati.com/black-owned-business/janel-lee-photography/
Jazzy Sweeties Bakery,,,https://www.jazzysweetiesbakery.com/,Email available (Cloudflare protected),513-492-2535,1006 E McMillan,Cincinnati,OH,45206,https://thevoiceofblackcincinnati.com/black-owned-business/jazzy-sweeties-bakery/
Jennifique Lashes Brows Beauty,,,https://jennifiquebeauty.com/,Email available (Cloudflare protected),513-365-2163,6219 Montgomery Road,Cincinnati,OH,45213,https://thevoiceofblackcincinnati.com/black-owned-business/jennifique-lashes-brows-beauty/
JetAbout Travel,,,http://www.jetabouttravel.com,Email available (Cloudflare protected),513-602-7294,7747 Fancycab Court,Cincinnati,OH,45231-6093,https://thevoiceofblackcincinnati.com/black-owned-business/jetabout-travel/
JJ Residential Design and Drafting Services,,,http://www.jjdraftingservice.com/index.html,Email available (Cloudflare protected),513-487-9612,P.O. Box 6744,Cincinnati,OH,45206,https://thevoiceofblackcincinnati.com/black-owned-business/jj-drafting-service-llc/
JL Tillman Insurance Agency,,,https://www.jltillmaninsurance.com/,Email available (Cloudflare protected),513 225-7488 or 513-733-8732,PO Box 62602,Cincinnati,OH,45262,https://thevoiceofblackcincinnati.com/black-owned-business/jl-tillman-insurance-agency/
Jonnie's Hair Care Hair Salon,,,http://jonnieshaircare.com/,Email available (Cloudflare protected),513-510-4130,7600 Hamilton Avenue,Mount Healthy,OH,45231,https://thevoiceofblackcincinnati.com/black-owned-business/jonnies-hair-care/
Joseph Clark Gallery - Arts of Africa,,,http://www.JosephClarkGallery.com/,Email available (Cloudflare protected),513-351-8111,4038 Hamilton Avenue,Cincinnati,OH,45223,https://thevoiceofblackcincinnati.com/black-owned-business/joseph-clark-gallery/
"Journey Steel, Inc.",,,http://www.journeysteel.com/#home,Email available (Cloudflare protected),513-731-2930,7660 Production Drive,Cincinnati,OH,45237,https://thevoiceofblackcincinnati.com/black-owned-business/journey-steel/
Junebug Jewelry Designs,,,https://junebugjewelrydesigns.com/,Email available (Cloudflare protected),513-568-8408,1327 Vine Street,Cincinnati,OH,45202,https://thevoiceofblackcincinnati.com/black-owned-business/junebug-jewelry-designs/
Just Cookin BBQ,,,https://justcookinbbq.com/,Email available (Cloudflare protected),513-641-3663,1144 California Avenue,Cincinnati,OH,45237,https://thevoiceofblackcincinnati.com/black-owned-business/just-cookin-bbq/
Just Love Coffee Cafe,,,https://justlovecoffeecafe.com/oh-cincinnati-colerain-township/,Email available (Cloudflare protected),513-501-1010,9894 Colerain Ave,Cincinnati,OH,45251,https://thevoiceofblackcincinnati.com/black-owned-business/just-love-coffee-cafe/
Just Q'in,,,http://www.justqin.com,Email available (Cloudflare protected),513-477-6322,"975 E. McMillan Avenue, Cincinnati, OH 45206",,,,https://thevoiceofblackcincinnati.com/black-owned-business/just-qin/
J&W Bar-B-Que Restaurant,,,https://www.facebook.com/JWBarbq/,Email available (Cloudflare protected),513-578-9870,5646 Montgomery Rd. 45212,Cincinnati,OH,,https://thevoiceofblackcincinnati.com/black-owned-business/jw-bar-b-que/
"JWGraham Speech Therapy Services, LLC",,,https://www.jwgrahamspeech.com,Email available (Cloudflare protected),513-813-7284,PO Box 42034,Blue Ash,OH,45242,https://thevoiceofblackcincinnati.com/black-owned-business/jwgraham-speech-therapy/
Kaptivative HR Solutions,,,https://www.kaptivative.com,Email available (Cloudflare protected),(513) 999-1038,311 Elm Street,Cincinnati,OH,45202,https://thevoiceofblackcincinnati.com/black-owned-business/kaptivative-hr-solutions/
Katch the Kitchen Restaurant & Bar,,,https://www.talech.com/biz/ordering/470380/KATCH-THE-KITCHEN-RESTAURANT-NORTHSIDE-OH#/menu,Email available (Cloudflare protected),513-873-6866,4172 Hamilton Avenue,Cincinnati,OH,45223,https://thevoiceofblackcincinnati.com/black-owned-business/katch-the-kitchen-food-truck-restaurant-bar/
Kavod Bethel African and Caribbean Market,,,https://kavodafricanmarket.com/,Email available (Cloudflare protected),(513) 578-3802,5582 Eureka Drive,Hamilton,OH,45011,https://thevoiceofblackcincinnati.com/black-owned-business/kavod-bethel-african-and-caribbean-market/
KeKe's Publishing,,,https://kekespublishing.com/shop/,Email available (Cloudflare protected),513-477-3014,516 Linn St. Suite 607 LINNcinnati Building,Cincinnati,OH,45203,https://thevoiceofblackcincinnati.com/black-owned-business/kekes-publishing/
Kept House Estate Sales,,,http://www.keptestate.com/,Email available (Cloudflare protected),513-609-4731,"994 Dana Avenue, Unit 3",Cincinnati,OH,45223,https://thevoiceofblackcincinnati.com/black-owned-business/kept-house/
Key Spot Event Center,,,https://keyspotapp.com/event-center,Email available (Cloudflare protected),(513) 376-6451,10088 Springfield Pike,Cincinnati,OH,45215,https://thevoiceofblackcincinnati.com/black-owned-business/key-spot-event-center/
Kickbacks Sports Bar and Nightclub,,,https://www.facebook.com/KICKBACKSCINCY,Email available (Cloudflare protected),513-832-2365,8087 Vine Street,Cincinnati,OH,45216,https://thevoiceofblackcincinnati.com/black-owned-business/kickbacks-sports-bar/
Kilimanjaro African Heritage Fashion,,,https://www.yelp.com/biz/kilimanjaro-african-heritage-cincinnati,Email available (Cloudflare protected),(513) 221-0700,310 Ludlow Ave,Cincinnati,OH,45220,https://thevoiceofblackcincinnati.com/black-owned-business/kilimanjaro-african-heritage/
Kingdom Family Dentistry,,,https://drmswope.com/,Email available (Cloudflare protected),513-742-2322,772 Waycross Rd.,Forest Park,OH,45240,https://thevoiceofblackcincinnati.com/black-owned-business/kingdom-family-dentistry/
KIP Roofing And Construction LLC,,,https://www.facebook.com/profile.php?id=61562307077530&amp;mibextid=ZbWKwL,Email available (Cloudflare protected),513-200-5739,6008 Madison Rd,Cincinnati,OH,45227-1818,https://thevoiceofblackcincinnati.com/black-owned-business/kip-roofing-and-construction-llc/
Kiwavi HQ Meeting Space,,,https://www.kiwavihq.com/,Email available (Cloudflare protected),470-344-3889,1805 Elm Street,Cincinnati,OH,45202,https://thevoiceofblackcincinnati.com/black-owned-business/kiwavi-hq/
Kolored on Purpose,,,https://getkoloredonpurpose.com/,Email available (Cloudflare protected),513-652-0069,1448 Ambrose Avenue,Cincinnati,OH,45224,https://thevoiceofblackcincinnati.com/black-owned-business/kolored-on-purpose/
"KP Heating and Cooling, LLC",,,https://kpheatingandcooling.com/,Email available (Cloudflare protected),(513) 498-0955,P.O. Box 19031,Cincinnati,OH,45219,https://thevoiceofblackcincinnati.com/black-owned-business/kp-heating-and-cooling-llc/
Kunimura Mitchell & Co. CPA's,,,http://www.kunimuramitchell.com/,Email available (Cloudflare protected),513-791-8090,4444 Carver Woods Drive,Cincinnati,OH,45242,https://thevoiceofblackcincinnati.com/black-owned-business/kunimura-mitchell-co-cpas/
KVC Law Firm and Consulting LLC,,,https://www.kvclawfirm.com,Email available (Cloudflare protected),(513) 549-6246,539 Liberty Hill Street,Cincinnati,OH,45202,https://thevoiceofblackcincinnati.com/black-owned-business/kvc-law-firm/
Najoli Learning Group LLC,,,http://www.NajoliLearningGroup.com,Email available (Cloudflare protected),513-508-3866,P.O. Box 7112,Cincinnati,OH,45205,https://thevoiceofblackcincinnati.com/black-owned-business/l-danyetta-najoli/
Labors of Love Counseling and Consulting,,,https://www.thelaborsoflove.com/,Email available (Cloudflare protected),513-294-8114,969 Reading Rd.,Mason,OH,45040,https://thevoiceofblackcincinnati.com/black-owned-business/labors-of-love/
Latisha's Magik Boutique,,,https://tishweave.weebly.com/,Email available (Cloudflare protected),513-432-1984,230 Northland Blvd Suite 225,Cincinnati,OH,45246,https://thevoiceofblackcincinnati.com/black-owned-business/latishas-magic-beauty-shop/
Licia Thompson Coaching &amp; Consulting,,,https://www.liciathompson.com/,Email available (Cloudflare protected),513-445-8363,P.O. Box 498882,Cincinnati,OH,45249,https://thevoiceofblackcincinnati.com/black-owned-business/licia-thompson/
LifeSource Christian Life & Mental Health Coach,,,http://www.lifesource.coach,Email available (Cloudflare protected),513-737-2200,5577 Eureka Drive,Fairfield Township,OH,45011,https://thevoiceofblackcincinnati.com/black-owned-business/lifesource-christian-life-mental-health-coaching/
London's Hair Food,,,https://londonshairfood.com/,Email available (Cloudflare protected),513-568-0652,PO BOX 18183,Fairfield,OH,45018,https://thevoiceofblackcincinnati.com/black-owned-business/londons-hair-food/
LoVe Nightclub,,,https://www.loveonfourth.com/,Email available (Cloudflare protected),513-818-5058,138 W 4th Street,Cincinnati,OH,45202,https://thevoiceofblackcincinnati.com/black-owned-business/love-nightclub/
Love Photography Studios,,,https://www.shotbylove.com/,Email available (Cloudflare protected),513-848-0143,6809 Main Street Unit #46,Cincinnati,OH,45244,https://thevoiceofblackcincinnati.com/black-owned-business/love-photography-studios/
Love That Hair Salon,,,https://www.lovethathair.org/,Email available (Cloudflare protected),513-834-7516,11561 Chester Road,Cincinnati,OH,45246,https://thevoiceofblackcincinnati.com/black-owned-business/love-that-hair/
Lovely Yoni’s,,,https://www.facebook.com/lovelyyonisllc/,Email available (Cloudflare protected),513-889-7885,5202 Montgomery Road,Cincinnati,OH,45212,https://thevoiceofblackcincinnati.com/black-owned-business/lovely-yonis/
M.T.A.P. Clothing,,,http://morethanapussy.com,Email available (Cloudflare protected),513-461-2125,1513 Vine Street,Cincinnati,OH,45202,https://thevoiceofblackcincinnati.com/black-owned-business/m-t-a-p-clothing/
Magnificent Morsels Catering,,,https://www.mmcaterz.com/,Email available (Cloudflare protected),513-652-5531,1719 Elm St,Cincinnati,OH,45202,https://thevoiceofblackcincinnati.com/black-owned-business/magnificent-morsels/
Mahogany Home,,,https://www.mahoganyhhh.com/index.html,Email available (Cloudflare protected),513-402-0496,2400 Reading Road Suite 139,Cincinnati,OH,45202,https://thevoiceofblackcincinnati.com/black-owned-business/mahogany-home-health-and-hospice/
Make.Do. Yarn and Fabric Store,,,https://www.heymakedo.com/,Email available (Cloudflare protected),513-370-3707,6200 Montgomery Road,Cincinnati,OH,45213,https://thevoiceofblackcincinnati.com/black-owned-business/make-do/
Make It Plain Consulting,,,http://mipcllc.com/,Email available (Cloudflare protected),513-421-2300,1212 Sycamore Street,Cincinnati,OH,45202,https://thevoiceofblackcincinnati.com/black-owned-business/make-it-plain-consulting-llc/
Make Me Over Wholistic Health and Stress,,,https://makemeovermassage.com/,Email available (Cloudflare protected),513-888-3198,10979 Reed Hartman Hwy,Blue Ash,OH,45242,https://thevoiceofblackcincinnati.com/black-owned-business/make-me-over-wholistic-health/
Makers Bakers Co,,,https://makersbakersco.com/,Email available (Cloudflare protected),513-807-9748,1801 Race Street,Cincinnati,OH,45202,https://thevoiceofblackcincinnati.com/black-owned-business/makers-bakers-co/
Mama Afrique Nigerian Cuisine,,,https://www.mamaafriquenc.com/schedule-1,Email available (Cloudflare protected),513-480-2554,5800 Colerain Avenue,Cincinnati,OH,45239,https://thevoiceofblackcincinnati.com/black-owned-business/mama-afrique-nigerian-cuisine/
Mango’s Tropical Oasis,,,https://www.facebook.com/MeetMeAtMangos,Email available (Cloudflare protected),513-973-0010,12183 Springfield Pike,Cincinnati,OH,45246,https://thevoiceofblackcincinnati.com/black-owned-business/mangos-tropical-oasis/
"Market Direct Promotional Items, Inc.",,,https://marketdirectinc.com,Email available (Cloudflare protected),513-563-4900,690 Northland Blvd.,Cincinnati,OH,45240,https://thevoiceofblackcincinnati.com/black-owned-business/market-direct/
Market Wines Walnut Hills,,,http://www.marketwineswalnuthills.com,Email available (Cloudflare protected),(513) 221-0287,767 East McMillan St.,Cincinnati,OH,45206,https://thevoiceofblackcincinnati.com/black-owned-business/market-wines-walnut-hills/
Matunda Juicery & Co.,,,https://www.facebook.com/MatundaJuiceryCo/,Email available (Cloudflare protected),513-680-5122,2908 Short Vine st.,Cincinnati,OH,45229,https://thevoiceofblackcincinnati.com/black-owned-business/matunda-juicery-co/
McClure Capital Lending,,,https://www.mcclurecapitallending.com/,Email available (Cloudflare protected),513-295-0640,1815 WILLIAM H TAFT RD S-807,Cincinnati,OH,45206,https://thevoiceofblackcincinnati.com/black-owned-business/mcclure-capital-lending/
Me By Lee Boutique,,,https://www.mebylee.com/,Email available (Cloudflare protected),513-446-9458,516 Linn Street,Cincinnati,,45203,https://thevoiceofblackcincinnati.com/black-owned-business/me-by-lee/
Megen Construction Co.,,,http://www.megenconstruction.com/,Email available (Cloudflare protected),513-742-9191,11130 Ashburn Road,Cincinnati,OH,45240,https://thevoiceofblackcincinnati.com/black-owned-business/megen-construction-company/
Metric Environmental,,,http://www.metricenv.com/,Email available (Cloudflare protected),513-402-1400,"810 Plum Street Ste 4, Cincinnati, OH 45202",Cincinnati,OH,45202,https://thevoiceofblackcincinnati.com/black-owned-business/metric-environmental-llc/
Midwest Best BBQ and Creamery,,,https://midwestbestbbq.com/,Email available (Cloudflare protected),(513) 965-9000,669 Justice Court,Loveland,OH,45140,https://thevoiceofblackcincinnati.com/black-owned-business/midwest-best-bbq-and-creamery/
Mirror Mirror on the Move Photo Booths,,,https://www.mirrormirroronthemove.com/,Email available (Cloudflare protected),513-399-6808,22 Triangle Park Drive,Cincinnati,OH,45246,https://thevoiceofblackcincinnati.com/black-owned-business/mirror-mirror-on-the-move/
Momunnie Tax Services,,,https://www.linkedin.com/in/maurine-smith-43098370,Email available (Cloudflare protected),513-886-2049,230 Northland Blvd. Suite 304,Cincinnati,OH,45246,https://thevoiceofblackcincinnati.com/black-owned-business/momunnie-tax-services/
Moncor Consulting,,,http://www.moncorinc.org,Email available (Cloudflare protected),513-800-0619,2639 Erie Avenue 8391,Cincinnati,OH,45208,https://thevoiceofblackcincinnati.com/black-owned-business/moncor-consulting-llc/
Monya Wyatt Consulting,,,http://www.monyawyattconsulting.com,Email available (Cloudflare protected),513-201-5701,8465 Colerain Ave #1071,Cincinnati,OH,45239,https://thevoiceofblackcincinnati.com/black-owned-business/monya-wyatt-consulting/
Moody Nolan,,,http://moodynolan.com/,Email available (Cloudflare protected),513-914-5835,40 W Central Parkway,Cincinnati,OH,45202,https://thevoiceofblackcincinnati.com/black-owned-business/moody-nolan-inc/
Moreau Sewing Unlimited,,,https://www.facebook.com/moreausewing/,Email available (Cloudflare protected),513-899-1054,1622 Chase Avenue,Cincinnati,OH,45223,https://thevoiceofblackcincinnati.com/black-owned-business/moreau-sewing-unlimited/
Most OutGROWing Arts,,,http://www.mostoutgrowing.com,Email available (Cloudflare protected),513-658-3174,1172 W Galbraith,Cincinnati,OH,45231,https://thevoiceofblackcincinnati.com/black-owned-business/most-outgrowing-llc/
Mr. Clippers Sharpening,,,http://www.thevoiceofyourcustomer.com/,Email available (Cloudflare protected),859-693-8332,218 Garrard St.,Covington,KY,41011,https://thevoiceofblackcincinnati.com/black-owned-business/mr-clippers-knife-sharpening/
Mr12am Photography and Videography,,,https://www.mr12am.com,Email available (Cloudflare protected),(859) 488-1226,2300 Montana Ave,Cincinnati,OH,45211,https://thevoiceofblackcincinnati.com/black-owned-business/mr12am/
Multicultural Solutions Website Design and Improvement,,,https://www.multiculturalsolutionsllc.com/,Email available (Cloudflare protected),513-790-6039,"35 East 7th Street, Suite 750",Cincinnati,OH,45202,https://thevoiceofblackcincinnati.com/black-owned-business/multicultural-solutions/
bus2_business_name,,,bus2_business_website_url,Email available (Cloudflare protected),bus2_business_phone,bus2_business_address_1,bus2_business_city,bus2_business_state_2_letter,bus2_business_zip,https://thevoiceofblackcincinnati.com/black-owned-business/murrelles-florist/
Muse Café,,,https://musecafecincy.com/,Email available (Cloudflare protected),513-906-7743,3018 Harrison Avenue,Cincinnati,OH,45211,https://thevoiceofblackcincinnati.com/black-owned-business/muse-cafe/
MyloRose Janitorial Service,,,https://mylorose.square.site/,Email available (Cloudflare protected),513-289-6161,3805 Ferdinand Place,Cincinnati,OH,45209,https://thevoiceofblackcincinnati.com/black-owned-business/mylorose/
Mz Jade's Soul Food,,,https://www.mzjadessoulfood.net/,Email available (Cloudflare protected),513-571-1150,2518 Clifton Ave,Cincinnati,OH,45219,https://thevoiceofblackcincinnati.com/black-owned-business/mz-jades-soul-food/
Nahamani.org Consulting,,,http://www.nahamani.org,Email available (Cloudflare protected),513-917-3959,P.O. Box 11133,Cincinnati,OH,45211,https://thevoiceofblackcincinnati.com/black-owned-business/nahamani-org-consulting/
Nanny’s Multi Level Learning Center,,,https://childcarecenter.us/provider_detail/nannys_multilevel_learning_center_inc_cincinnati_oh,Email available (Cloudflare protected),513-281-4457,3494 Reading Rd.,Cincinnati,OH,45229,https://thevoiceofblackcincinnati.com/black-owned-business/nannys-multi-level-learning-center/
Natural Shea Care,,,http://www.naturalsheacare.com/,Email available (Cloudflare protected),513-307-5426,1311 Vine Street,Cincinnati,OH,45202,https://thevoiceofblackcincinnati.com/black-owned-business/natural-shea-care/
New Direction Coaching & Consulting,,,http://newdirectioncc1.com,Email available (Cloudflare protected),513-620-5709,P. O. Box 24101,Cincinnati,OH,45224,https://thevoiceofblackcincinnati.com/black-owned-business/new-direction-coaching-and-consulting/
New Journeys for Cleaning,,,https://new-journeys-for-cleaning-llc.business.site/?utm_source=gmb&utm_medium=referral,Email available (Cloudflare protected),513-376-3336,7600 Clovernook Avenue,Mount Healthy,OH,45231,https://thevoiceofblackcincinnati.com/black-owned-business/new-journeys/
"New Leaf Counseling Group, LLC",,,https://newleafcounselinggroup.org/,Email available (Cloudflare protected),(513) 443-8790,11427 Reed Hartman Hwy,Blue Ash,OH,45241,https://thevoiceofblackcincinnati.com/black-owned-business/new-leaf-counseling/
Next Generation Fuel LLC,,,https://www.nxtgenfuel.com/,Email available (Cloudflare protected),513-672-2386,3589 Commerce Dr,Middletown,OH,45005,https://thevoiceofblackcincinnati.com/black-owned-business/next-generation-fuel/
Niecey Freeman Counseling,,,http://nieceyfreemanllc.com,Email available (Cloudflare protected),513-518-3332,2592 Willowspring Court,Cincinnati,OH,45231,https://thevoiceofblackcincinnati.com/black-owned-business/niecey-freeman-llc/
Night Kap Soul Food Restaurant,,,https://www.thenightkap.net/,Email available (Cloudflare protected),513-888-4001,6966 Plainfield Road,Silverton,OH,45236,https://thevoiceofblackcincinnati.com/black-owned-business/night-kap-soul-food-restaurant/
Nina LiricQ's,,,http://www.ninaliricqs.com,Email available (Cloudflare protected),513-293-6932,P.O. BOX 24124,Cincinnati,OH,45224,https://thevoiceofblackcincinnati.com/black-owned-business/nina-liricqs/
No Pork on My Fork Food Trailer,,,https://www.facebook.com/NOPORKONMYFORKLLC/,Email available (Cloudflare protected),513- 915-3156,1669 California Avenue,Cincinnati,OH,45237,https://thevoiceofblackcincinnati.com/black-owned-business/no-pork-on-my-fork/
Nostalgia Wine & Jazz Lounge,,,https://nostalgiaotr.com/,Email available (Cloudflare protected),513-400-8624,1432 Vine Street,Cincinnati,OH,45202,https://thevoiceofblackcincinnati.com/black-owned-business/nostalgia-wine-jazz/
NOVE Home & Body Decor,,,https://novedecor.com/,Email available (Cloudflare protected),513-549-3791,6457 Glenway Ave Ste 141,Cincinnati,OH,45211,https://thevoiceofblackcincinnati.com/black-owned-business/nove-home-body-decor/
Noviad 360 Photo Booth Rental,,,https://noviad360photoboothrental.com/,Email available (Cloudflare protected),(513) 275-7227,11711 Princeton Pike,Springdale,OH,45246,https://thevoiceofblackcincinnati.com/black-owned-business/noviad-360-photo-booth-rental/
Nurture Me. Growth in different ways,,,https://www.nurtureme4ever.com/shop,Email available (Cloudflare protected),(513) 202-3089,7950 Village Dr,Cincinnati,OH,45242,https://thevoiceofblackcincinnati.com/black-owned-business/nurture-me/
OCG Telecom,,,https://www.ocgtelecom.com/contact/,Email available (Cloudflare protected),513-588-2828,1550 Magnolia Dr,Cincinnati,OH,45215,https://thevoiceofblackcincinnati.com/black-owned-business/ocg-telecom/
Ohio Kurvy Fashion Weekend,,,https://www.facebook.com/okfwllc/,Email available (Cloudflare protected),513-413-0483,1821 Summit Road,Cincinnati,OH,45237,https://thevoiceofblackcincinnati.com/black-owned-business/ohio-kurvy-fashion-weekend/
Ollie's Trolley,,,https://www.facebook.com/OlliesTrolleyCincinnati/,Email available (Cloudflare protected),513-381-6100,1607 Central Avenue,Cincinnati,OH,45214,https://thevoiceofblackcincinnati.com/black-owned-business/ollies-trolley/
Omega Janitorial Service,,,https://omegajanitorialser.wixsite.com/my-site,Email available (Cloudflare protected),513-286-3131,5431 Owasco St,Cincinnati,OH,45227,https://thevoiceofblackcincinnati.com/black-owned-business/omega-janitorial-service/
On The Go Mobile Alcohol and Drug Collections,,,https://www.onthegomobilellc.com/,Email available (Cloudflare protected),513-301-8222,1821 Summit Road 102F,Cincinnati,OH,45237,https://thevoiceofblackcincinnati.com/black-owned-business/on-the-go-mobile/
On1 Apparel,,,https://www.on1apparel.com/,Email available (Cloudflare protected),(513) 442-8400,1327 E Kemper Rd,Cincinnati,OH,45246,https://thevoiceofblackcincinnati.com/black-owned-business/on1-apparel/
Originalitees Apparel,,,https://originalitees.com/,Email available (Cloudflare protected),513-429-4090,"Mailing Address: 2701 Spring Grove Ave, Suite 3400",Cincinnati,OH,45225,https://thevoiceofblackcincinnati.com/black-owned-business/originalitees/
OTR Funplex,,,http://www.otrescape.com,Email available (Cloudflare protected),513-857-1533,1112 Race Street,Cincinnati,OH,45202,https://thevoiceofblackcincinnati.com/black-owned-business/otr-funplex/
OTR Live Night Club,,,https://www.instagram.com/otrlive/,Email available (Cloudflare protected),513-421-5483,209 East 12th Street,Cincinnati,OH,45202,https://thevoiceofblackcincinnati.com/black-owned-business/otr-live/
Out The Way Bar & Grill,,,https://www.facebook.com/Outtheway-898927003590110/,Email available (Cloudflare protected),513-889-4538,4880 Union Centre Pavilion,West Chester,OH,45069,https://thevoiceofblackcincinnati.com/black-owned-business/out-the-way-bar-grill/
Paityn’s Place Soul Food Catering and Cuisine,,,http://paitynsplace.com/about.html,Email available (Cloudflare protected),​(513) 238-9306,607 Shepherd Drive Unit 11 & 12,Cincinnati,OH,45215,https://thevoiceofblackcincinnati.com/black-owned-business/paityns-place-soul-food-catering-and-cuisine-llc/
Paradise Gym and Fitness Center,,,http://www.thevoiceofyourcustomer.com/,Email available (Cloudflare protected),513-479-0040,6019 Vine Street,Cincinnati,OH,45216,https://thevoiceofblackcincinnati.com/black-owned-business/paradise-fitness-center/
Park Place Restaurant,,,https://sites.google.com/view/parkplacerestaurant/home,Email available (Cloudflare protected),513-825-8888,1185 Kemper Meadow Drive,Forest Park,OH,45240,https://thevoiceofblackcincinnati.com/black-owned-business/park-place-restaurant/
Pata Roja Taqueria,,,https://www.patarojatacos.com/,Email available (Cloudflare protected),513-547-8226,52 E Court St,Cincinnati,OH,45202,https://thevoiceofblackcincinnati.com/black-owned-business/pata-roja-taqueria/
Perfect Touch Helps,,,https://www.facebook.com/perfecttouchhelps/,Email available (Cloudflare protected),(513) 260-5694,2908 Short Vine Street,Cincinnati,OH,45219,https://thevoiceofblackcincinnati.com/black-owned-business/perfect-touch-helps/
Perfectionist Cleaning Service,,,https://www.facebook.com/perfectionistcleaning4u/?ref=page_internal,Email available (Cloudflare protected),513-546-1669,1400 Reading Road Ste 1006,Cincinnati,OH,45202,https://thevoiceofblackcincinnati.com/black-owned-business/perfectionist-cleaning-service/
Perfectly Placed by Pamela,,,https://www.perfectlyplacedbypamela.com/,Email available (Cloudflare protected),513-512-5872,P.O. Box 204,Loveland,OH,45140,https://thevoiceofblackcincinnati.com/black-owned-business/perfectly-placed-by-pamela/
Personal Care and Personal Training,,,https://www.pcpt.info/,Email available (Cloudflare protected),859-608-4507,110 W 15th Street,Cincinnati,OH,45202,https://thevoiceofblackcincinnati.com/black-owned-business/personal-care-and-personal-training/
Pike 2 Bar and Grill,,,https://www.instagram.com/_thepike2cincy/,Email available (Cloudflare protected),513-938-7453,10010 Springfield Pike,Cincinnati,OH,45215,https://thevoiceofblackcincinnati.com/black-owned-business/pike-2-bar-and-grill/
Pink Rich Charm Bar,,,https://www.pinkrichcharmbar.com/,Email available (Cloudflare protected),513-203-3737,1411 Main Street,Cincinnati,OH,45202,https://thevoiceofblackcincinnati.com/black-owned-business/pink-rich-charm-bar/
Plant Therapy by Brandie,,,https://www.facebook.com/handiebrandieplantsandmorellc,Email available (Cloudflare protected),513-667-0499,236 McCormick PL,Cincinnati,OH,45219,https://thevoiceofblackcincinnati.com/black-owned-business/plant-therapy-by-brandie/
Pluto's Cafe,,,https://www.plutoscafe.com/,Email available (Cloudflare protected),513-817-7142,1817 Galbraith Rd,North College Hill,OH,45239,https://thevoiceofblackcincinnati.com/black-owned-business/plutos-cafe/
Pope Financial Planning,,,https://aprylpope.advisorwebsite.com/,Email available (Cloudflare protected),513-202-3485,4555 Lake Forest Dr.,Cincinnati,OH,45242,https://thevoiceofblackcincinnati.com/black-owned-business/pope-financial-planning/
Posh Fitness and Pole Classes,,,http://poshfitnessboutique.com,Email available (Cloudflare protected),513-421-7674,1216 Sycamore St #12,Cincinnati,OH,45202,https://thevoiceofblackcincinnati.com/black-owned-business/posh-fitness/
POTI9N Adult Beverages,,,http://www.poti9n.com,Email available (Cloudflare protected),513-923-0909,2409 Bluffcrest Lane Unit B,Cincinnati,OH,45238,https://thevoiceofblackcincinnati.com/black-owned-business/poti9n/
POWER Academy of Cincinnati Martial Arts Boot Camp,,,https://www.poweracademyusa.com/,Email available (Cloudflare protected),(513) 268-7215,7074 Harrison Ave.,Cincinnati,OH,45247,https://thevoiceofblackcincinnati.com/black-owned-business/power-academy/
Precise Timing Transports LLC,,,https://precisetimingtransports.com/,Email available (Cloudflare protected),(513) 658-9166,3352 Amberway Court,Cincinnati,OH,45251,https://thevoiceofblackcincinnati.com/black-owned-business/precise-timing-transports/
Premier Transformation Counseling,,,https://www.premiertransformation.com/,Email available (Cloudflare protected),513-344-6113,791 East McMillan Street,Cincinnati,OH,45206,https://thevoiceofblackcincinnati.com/black-owned-business/premier-transformation-counseling-and-consulting-services/
Press N Stitch,,,https://pressstitch.com/,Email available (Cloudflare protected),513-227-9355,10999 Reed Hartman Hwy,Blue Ash,OH,45242,https://thevoiceofblackcincinnati.com/black-owned-business/press-n-stitch/
Preston Charles Funeral Home,,,https://www.prestoncharlesfuneralhome.com/,Email available (Cloudflare protected),513-761-0082,400 N. Wayne Avenue,Cincinnati,OH,45215,https://thevoiceofblackcincinnati.com/black-owned-business/preston-charles-funeral-home/
Pretty Please Makeup Studio,,,http://www.prettypleasemakeupstudio.com,Email available (Cloudflare protected),513-686-9393,500 E. Ross Avenue Suite#2,Cincinnati,OH,45217,https://thevoiceofblackcincinnati.com/black-owned-business/pretty-please-makeup-studio/
Prevail Productions,,,https://prevailproductionsllc.com/,Email available (Cloudflare protected),513-312-4946,3301 Colerain Avenue,Cincinnati,OH,45225,https://thevoiceofblackcincinnati.com/black-owned-business/prevail-productions/
Pro Auto Tint and Details,,,https://proautotintoh.com/affordable-window-tinting-cincinnati-oh/,Email available (Cloudflare protected),513-268-6236,3418 Harrison Avenue,Cincinnati,OH,45211,https://thevoiceofblackcincinnati.com/black-owned-business/pro-auto-tint-and-details/
Pro-Contractors,,,https://www.facebook.com/PROCON513?mibextid=LQQJ4d,Email available (Cloudflare protected),(513) 402-0350,5115 Vine St.,Cincinnati,OH,45216,https://thevoiceofblackcincinnati.com/black-owned-business/pro-contractors/
PrttyPkUp,,,https://www.prttypkup.com/,Email available (Cloudflare protected),513-332-1766,2345 Ashland Ave #207,Cincinnati,OH,45206,https://thevoiceofblackcincinnati.com/black-owned-business/prttypkup/
Purpose513,,,https://www.purpose513.com,Email available (Cloudflare protected),(513) 554-4968,309 E. Sharon Road,Glendale,OH,45246,https://thevoiceofblackcincinnati.com/black-owned-business/purpose-513/
Q'Tique-ish Apparel,,,http://kevasdavis.com/shop-qtiqueish,Email available (Cloudflare protected),513-827-7179,7710 Reading Road,Cincinnati,OH,45237,https://thevoiceofblackcincinnati.com/black-owned-business/qtique-ish/
Queen City Medical Transport,,,https://www.queencitymedtransport.com/,Email available (Cloudflare protected),513-903-4073,824 W. North Bend Road,Cincinnati,OH,45224,https://thevoiceofblackcincinnati.com/black-owned-business/queen-city-medical-transport/
Queen City Thrones Party Equipment Rental,,,https://queencitythronecha.wixsite.com/queencitythrones,Email available (Cloudflare protected),(513) 807-0342,2530 Spring Grove Avenue,Cincinnati,OH,45214,https://thevoiceofblackcincinnati.com/black-owned-business/queen-city-thrones/
"Rachel R. Citak, Attorney at Law",,,http://www.rcitaklaw.com,Email available (Cloudflare protected),513-845-2121,PO Box 54326,Cincinnati,OH,45254,https://thevoiceofblackcincinnati.com/black-owned-business/rachel-r-citak-attorney-at-law-llc/
RENaturals Beauty & Wellness Spa,,,https://www.facebook.com/pages/Renaturals%20Beauty%20Wellness%20Spa%20LLC/112805923913856/,Email available (Cloudflare protected),513-546-9545,1612 West Galbraith Road,Cincinnati,OH,45239,https://thevoiceofblackcincinnati.com/black-owned-business/renaturals/
Rescue Quest CPR,,,http://www.rescuequestcpr.com,Email available (Cloudflare protected),513-445-2009,10921 Reed Hartman Highway,Blue Ash,OH,45242,https://thevoiceofblackcincinnati.com/black-owned-business/rescue-quest-cpr/
Respect 4 Life Security,,,https://www.r4lsecurity.org/,Email available (Cloudflare protected),513-550-9821,6566 Montgomery Rd suite205,Cincinnati,OH,45213,https://thevoiceofblackcincinnati.com/black-owned-business/respect-4-life-security/
RestoreMD Medical Weight Loss,,,https://www.restoremd.life,Email available (Cloudflare protected),513-228-0077,15 Cincinnati Ave Suite 5,Lebanon,OH,45036,https://thevoiceofblackcincinnati.com/black-owned-business/restoremd-medical-weight-loss/
Richardson and Associates CPA's,,,https://www.richardsonandassociates.com/,Email available (Cloudflare protected),(513) 477-4842,427 Appaloosa Court,Cincinnati,OH,45231,https://thevoiceofblackcincinnati.com/black-owned-business/richardson-and-associates-accounting/
Rideordie Gun Training,,,http://www.rideordieguntraining.com,Email available (Cloudflare protected),513-442-1528,2830 Mack Rd,Fairfield,OH,45014,https://thevoiceofblackcincinnati.com/black-owned-business/rideordie-gun-training/
RilEntertainment Party Planning,,,https://www.rilentertainment.net,Email available (Cloudflare protected),513-551-9152,1110 Pendleton Avenue,Cincinnati,OH,45202,https://thevoiceofblackcincinnati.com/black-owned-business/rilentertainment/
Rise Business Solutions,,,http://www.risebusinesssolutions.com/,Email available (Cloudflare protected),513-652-8495,1775 Mentor Avenue,Cincinnati,OH,45212,https://thevoiceofblackcincinnati.com/black-owned-business/rise-business-solutions/
Riston Financial Service Group,,,http://www.ristonfinancialservicegroup.com,Email available (Cloudflare protected),513-909-9670,2639 Erie Ave,Cincinnati,OH,45208,https://thevoiceofblackcincinnati.com/black-owned-business/riston-financial-service-group/
RN and Associates Healthcare Training,,,http://www.rnassociates.org/,Email available (Cloudflare protected),513-771-7862,245 Northland Boulevard,Cincinnati,OH,45246,https://thevoiceofblackcincinnati.com/black-owned-business/rn-and-associates-llc/
Rooted in Prosperity Mental Wellness,,,https://www.rootedinprosperityws.com,Email available (Cloudflare protected),(513) 204-9646,1 North Commerce Park Drive,Cincinnati,OH,45215,https://thevoiceofblackcincinnati.com/black-owned-business/rooted-in-prosperity/
Rosalind Smith Counseling,,,https://www.rosalindsmithcounseling.com,Email available (Cloudflare protected),513-843-6003,431 Ohio Pike,Cincinnati,OH,45255,https://thevoiceofblackcincinnati.com/black-owned-business/rosalind-smith-counseling/
RoSho Awards & Graphics,,,https://roshoawardsandgraphics.com/,Email available (Cloudflare protected),513-731-8111,2206 Langdon Farm Road,Cincinnati,OH,45237,https://thevoiceofblackcincinnati.com/black-owned-business/rosho/
Rover The Rhine Veterinary Hospital,,,http://rovertherhine.com,Email available (Cloudflare protected),513-474-8382,908 Race St,Cincinnati,OH,45202,https://thevoiceofblackcincinnati.com/black-owned-business/rover-the-rhine-veterinary-hospital/
Royalty Janitorial Services,,,https://duchessjanitorial.wixsite.com/website?fbclid=IwAR1ybE7YbZ6AJ4A4pwlLH6uAFp-Aa6eksX_Bv0rTXlqJsdVU6HBXffYurWA,Email available (Cloudflare protected),513-838-0063,11427 Reed Hartman Hwy,Cincinnati,OH,45241,https://thevoiceofblackcincinnati.com/black-owned-business/royalty-janitorial-services/
RushFit Studio,,,https://www.facebook.com/RushFitStudio/,Email available (Cloudflare protected),513-410-3391,1124 Broadway St.,Cincinnati,OH,45202,https://thevoiceofblackcincinnati.com/black-owned-business/rushfit-studio/
SAIGE Consulting,,,https://saysaige.com/,Email available (Cloudflare protected),513-293-9068,Greater Cincinnati,Cincinnati,OH,45219,https://thevoiceofblackcincinnati.com/black-owned-business/saige-consulting-services/
Sam B. Fingerprints,,,https://sambfingerprints.com,Email available (Cloudflare protected),(513) 473-3984,270 Northland Blvd.,Cincinnati,OH,45246,https://thevoiceofblackcincinnati.com/black-owned-business/sam-b-fingerprints/
Sanders Development Group,,,https://sandersdg.com/,Email available (Cloudflare protected),513-886-1444,1941 Race Street,Cincinnati,OH,45202,https://thevoiceofblackcincinnati.com/black-owned-business/sanders-development-group/
Satori Holistic Massage,,,https://www.satoriholisticmassage.com/,Email available (Cloudflare protected),513-289-3062,3825 Edwards Road,Cincinnati,OH,45209,https://thevoiceofblackcincinnati.com/black-owned-business/satori-holistic-massage/
Saturday Morning Vibes,,,https://smvcerealbar.com/,Email available (Cloudflare protected),(513) 801-6058,3539 Reading Road,Cincinnati,OH,45229,https://thevoiceofblackcincinnati.com/black-owned-business/saturday-morning-vibes/
Savor Eventz,,,http://www.savoreventz.com/,Email available (Cloudflare protected),513-834-9061,PO Box 46944,Cincinnati,OH,45240,https://thevoiceofblackcincinnati.com/black-owned-business/savor-eventz-llc/
Scoop Dawg’s,,,https://www.facebook.com/people/Scoop-Dawg-Spirits/100027993319272/,Email available (Cloudflare protected),513-407-7080,6305 Vine Street,Cincinnati,OH,45216,https://thevoiceofblackcincinnati.com/black-owned-business/scoop-dawgs-caribbean-restaurant/
Second & Lenox,,,https://www.secondandlenox.com,Email available (Cloudflare protected),513-630-7182,8730 Cincinnati Dayton Road,West Chester,OH,45071,https://thevoiceofblackcincinnati.com/black-owned-business/second-lenox/
Secure & Protect,,,https://www.instagram.com/anotherhomesecuredandprotected/,Email available (Cloudflare protected),513-623-0679,P.O. Box 1175 #18559,Cincinnati,OH,45201,https://thevoiceofblackcincinnati.com/black-owned-business/secure-protect/
Selfie Cincy,,,https://www.selfiecincy.com/,Email available (Cloudflare protected),513-510-5417,1338 Main Street,Cincinnati,OH,45202,https://thevoiceofblackcincinnati.com/black-owned-business/selfie-cincy/
Sentimental Bracelets,,,https://www.facebook.com/SentimentalBracelets/,Email available (Cloudflare protected),(513) 545-1078,8465 Colerain Ave,Cincinnati,OH,45239,https://thevoiceofblackcincinnati.com/black-owned-business/sentimental-bracelets/
Shango's Urban Taqueria,,,https://www.shangostacos.com/,Email available (Cloudflare protected),(513) 999-8888,2750 Park Avenue,Norwood,OH,45212,https://thevoiceofblackcincinnati.com/black-owned-business/shangos-urban-taqueria/
Shawndale Thomas Photography,,,https://www.shawndale.com/,Email available (Cloudflare protected),513-293-9917,3103 Colerain Avenue,Cincinnati,OH,45225,https://thevoiceofblackcincinnati.com/black-owned-business/shawndale-thomas-photography/
Shay ButterNaked,,,Https://shaybutternaked.com,Email available (Cloudflare protected),513-427-6868,PO Box 31290,Cincinnati,OH,45231,https://thevoiceofblackcincinnati.com/black-owned-business/shay-butternaked/
Sheffield Accounting and Financial Services,,,https://www.sheffieldafservices.com/,Email available (Cloudflare protected),513-609-5876,230 Northland Blvd. #127,Cincinnati,OH,45246,https://thevoiceofblackcincinnati.com/black-owned-business/sheffield-accounting-and-financial-services/
Showcase Building & Design Inc.,,,http://showcasebuilding.com/,Email available (Cloudflare protected),513-200-4769,P.O. Box 18283,Cincinnati,OH,45218,https://thevoiceofblackcincinnati.com/black-owned-business/showcase-building-design/
Simplee Miss Bath & Body Products,,,https://simpleemiss.com/,Email available (Cloudflare protected),513-317-7927,4844 Gray Road,Cincinnati,OH,45432,https://thevoiceofblackcincinnati.com/black-owned-business/simplee-miss-bath-body-products/
Skin by Brownlee & Co.,,,http://www.skinbybrownleeandco.com/,Email available (Cloudflare protected),513-351-7873,7337 Montgomery Road,Cincinnati,OH,45236,https://thevoiceofblackcincinnati.com/black-owned-business/skin-by-brownlee-co/
Skin Haven Aesthetics,,,https://www.skinhavenbykoko.com,Email available (Cloudflare protected),513-837-1116,1412 Walnut Street,Cincinnati,OH,45202,https://thevoiceofblackcincinnati.com/black-owned-business/skin-haven-aesthetics/
Skinful Beauty,,,https://www.vagaro.com/us03/skinfulbeauty1,Email available (Cloudflare protected),513-222-4353,230 Northland Blvd.,Cincinnati,OH,45246,https://thevoiceofblackcincinnati.com/black-owned-business/skinful-beauty/
Soleil Kitchen Catering Company,,,https://soleilkitchen.com/,Email available (Cloudflare protected),513-545-1687,1719 Elm Street,Cincinnati,OH,45202,https://thevoiceofblackcincinnati.com/black-owned-business/soleil-kitchen/
Soul Palette Painting Parties,,,https://www.paintwithyoursoul.com/,Email available (Cloudflare protected),513-227-4836,PO Box 15112,Cincinnati,OH,45215,https://thevoiceofblackcincinnati.com/black-owned-business/soul-palette/
Soul Secrets,,,https://www.soulsecretscincy.com/,Email available (Cloudflare protected),513-721-7685,1434 Vine Street,Cincinnati,OH,45202,https://thevoiceofblackcincinnati.com/black-owned-business/soul-secrets/
Southern Grace Cincy,,,https://www.facebook.com/SouthernGraceCincy/,Email available (Cloudflare protected),513-808-5819,3751 Montgomery Road,Cincinnati,OH,45212,https://thevoiceofblackcincinnati.com/black-owned-business/southern-grace-cincy/
Sparklight Creative Group Personal and Professional Development,,,https://www.sparklightcreates.com/,Email available (Cloudflare protected),859-479-2064,904 Scott Blvd.,Covington,KY,41011,https://thevoiceofblackcincinnati.com/black-owned-business/sparklight-creative-group/
Springs and Steel,,,https://www.springsandsteel.com/,Email available (Cloudflare protected),513-213-0922,8730 Cincinnati Dayton Rd #624,West Chester,OH,45069,https://thevoiceofblackcincinnati.com/black-owned-business/springs-and-steel/
Stamped By Latrice Mobile Notary,,,https://www.facebook.com/stampedbylatrice/,Email available (Cloudflare protected),(513) 900-0691,PO Box 14247,Cincinnati,OH,45250,https://thevoiceofblackcincinnati.com/black-owned-business/stamped-by-latrice/
Stone Financial Retirement Planning,,,http://www.stone-financial.com/,Email available (Cloudflare protected),513-793-8445,10101 Alliance Road Suite 180,Cincinnati,OH,45242,https://thevoiceofblackcincinnati.com/black-owned-business/stone-financial-retirement-planning/
Style and Grace Consignment,,,https://www.styleandgraceconsignment.com,Email available (Cloudflare protected),513-608-3202,7th Street E,Cincinnati,OH,45202,https://thevoiceofblackcincinnati.com/black-owned-business/style-and-grace-consignment/
Stylish by LéNese Clothing Boutique,,,https://stylishleneseboutique.com/,Email available (Cloudflare protected),513-827-9990,,Cincinnati,OH,,https://thevoiceofblackcincinnati.com/black-owned-business/stylish-lenese-clothing-boutique/
Sugar,,,http://cakesbysugar.com,Email available (Cloudflare protected),513-884-0787,6 W 14th Street,Cincinnati,OH,45202,https://thevoiceofblackcincinnati.com/black-owned-business/sugar/
SURE Mechanical Commercial HVAC Services,,,https://suremechanical.com/,Email available (Cloudflare protected),513-898-1050,3494 Beekman Street,Cincinnati,OH,45223,https://thevoiceofblackcincinnati.com/black-owned-business/sure-mechanical-hvac-services/
SureFire Innovations,,,https://surefireinnovation.com/,Email available (Cloudflare protected),513-833-4781,1776 Mentor Ave,Cincinnati,OH,45212,https://thevoiceofblackcincinnati.com/black-owned-business/surefire-innovations/
Sutle Productions,,,https://www.sutleproductions.com/,Email available (Cloudflare protected),513-317-1124,11650 Kodiac Drive,Cincinnati,OH,45240,https://thevoiceofblackcincinnati.com/black-owned-business/sutle-productions/
Sutton Bar and Grill,,,https://suttonbarandgrill.com/,Email available (Cloudflare protected),513-510-5134,1832 Sutton Ave,Cincinnati,OH,45230,https://thevoiceofblackcincinnati.com/black-owned-business/sutton-bar-and-grill/
Swain Consulting,,,http://swainconsultingllc.com,Email available (Cloudflare protected),513-818-1753,P.O. Box 36628,Cincinnati,OH,45236,https://thevoiceofblackcincinnati.com/black-owned-business/swain-consulting/
Sweet Jazz Treats,,,https://www.sweetjazztreats.com/,Email available (Cloudflare protected),513-653-4410,607 Shepherd Drive,Cincinnati,OH,45215,https://thevoiceofblackcincinnati.com/black-owned-business/sweet-jazz-treats/
Sweet Serenity Day Spa LLC,,,https://www.vagaro.com/sweet-serenity,Email available (Cloudflare protected),(513) 401-5703,3445 North Bend Rd,Cincinnati,OH,45239,https://thevoiceofblackcincinnati.com/black-owned-business/sweet-serenity-day-spa/
Sweet Tooth Comprehensive Dentistry,,,http://WWW.Sweettoothcd.com,Email available (Cloudflare protected),513-541-5599,1323 Myrtle Ave,Cincinnati,OH,45206,https://thevoiceofblackcincinnati.com/black-owned-business/sweet-tooth-comprehensive-dentistry/
Sweets by LaDawn,,,https://www.facebook.com/SweetsbyLaDawn/,Email available (Cloudflare protected),513-791-7938,7032 Plainfield Rd,Cincinnati,OH,45236,https://thevoiceofblackcincinnati.com/black-owned-business/sweets-by-ladawn/
Switch Lighting & Design,,,https://www.switchcollection.com,Email available (Cloudflare protected),513-721-8100,126 E. 6th Street,Cincinnati,OH,45202,https://thevoiceofblackcincinnati.com/black-owned-business/switch-furniture-lighting/
Tailored Sophistication Boutique,,,https://tailoredsophistication.com/,Email available (Cloudflare protected),513-873-6595,2601 Short Vine St,Cincinnati,OH,45219,https://thevoiceofblackcincinnati.com/black-owned-business/tailored-sophistication-boutique/
Task It Concierge Personal Services,,,https://www.taskitconcierge.com/,Email available (Cloudflare protected),513-903-3659,311 Elm Street Ste 270,Cincinnati,OH,45202,https://thevoiceofblackcincinnati.com/black-owned-business/task-concierge/
Tay'aire'de Beauty Supply,,,https://beautysupplyattayairede.wordpress.com/,Email available (Cloudflare protected),513-386-7158,10088 Springfield Pk. #4,Cincinnati,OH,45215,https://thevoiceofblackcincinnati.com/black-owned-business/tayairede-beauty-supply/
Technology Tailor Made IT,,,https://www.techtailormade.com,Email available (Cloudflare protected),513-549-8308,115 W. Kemper Road,Cincinnati,OH,45246,https://thevoiceofblackcincinnati.com/black-owned-business/technology-tailor-made/
Teranga Restaurant,,,https://www.terangacinci.com/,Email available (Cloudflare protected),513-821-1300,8438 Vine St.,Hartwell,OH,45216,https://thevoiceofblackcincinnati.com/black-owned-business/teranga-restaurant/
The Aperture,,,https://www.theaperturecinci.com/,Email available (Cloudflare protected),513-550-0625,900 E. McMillan Street,Cincinnati,OH,45206,https://thevoiceofblackcincinnati.com/black-owned-business/the-aperture/
The Arepa Place,,,https://arepaplace.com/,Email available (Cloudflare protected),513-744-9500,131 W. Elder St.,Cincinnati,OH,45202,https://thevoiceofblackcincinnati.com/black-owned-business/the-arepa-place/
The Aria Bistro and Lounge,,,https://www.theariabistrolounge.com/,Email available (Cloudflare protected),513-499-3094,"5353 Dixie Hwy, Ste B.",Fairfield,OH,45014,https://thevoiceofblackcincinnati.com/black-owned-business/the-aria-bistro-and-lounge/
The Balloon Parlor,,,http://www.balloonparlor.com,Email available (Cloudflare protected),513-410-8935,8030 Valleycrossing Drive,Cincinnati,OH,45247,https://thevoiceofblackcincinnati.com/black-owned-business/the-balloon-parlor/
The Bangin’ Grille,,,https://www.TheBanginGrille.com,Email available (Cloudflare protected),513-888-1318,11711 Princeton Pike Suite 341-181,Cincinnati,OH,45246,https://thevoiceofblackcincinnati.com/black-owned-business/the-bangin-grille/
The Brow Therapist,,,https://www.thebrowtherapistcincy.com/,Email available (Cloudflare protected),(513) 262-1134,10901 Reed Hartman Highway,Cincinnati,OH,45242,https://thevoiceofblackcincinnati.com/black-owned-business/the-brow-therapist-llc/
Candace Bates State Farm Insurance,,,https://www.candacebatesinsurance.com,Email available (Cloudflare protected),513-837-2744,26 W. 13th Street,Cincinnati,OH,45202,https://thevoiceofblackcincinnati.com/black-owned-business/the-candace-bates-state-farm-insurance-agency/
The Cincinnati Herald Newspaper,,,http://www.TheCincinnatiHerald.com/,Email available (Cloudflare protected),513-961-3331,3860 Reading Road,Cincinnati,OH,45229,https://thevoiceofblackcincinnati.com/black-owned-business/the-cincinnati-herald/
The Cochran Firm Ohio Attorneys at Law,,,https://www.cochranfirm.com/cincinnati/,Email available (Cloudflare protected),513-381-4878,119 E. Court Street,Cincinnati,OH,45202,https://thevoiceofblackcincinnati.com/black-owned-business/the-cochran-firm/
The Country Meat Co Marketplace ,,,https://thecountrymeatcomarketplace.com/,Email available (Cloudflare protected),513-723-1333,"3539 Reading Road, Cincinnati, OH 45229",,,,https://thevoiceofblackcincinnati.com/black-owned-business/the-country-meat-co-marketplace/
The Genesis Collection,,,https://www.genesiscollectionshop.com/,Email available (Cloudflare protected),513-680-9806,"3539 Reading Rd., Suite 102",Cincinnati,OH,45229,https://thevoiceofblackcincinnati.com/black-owned-business/the-genesis-collection/
Headache Center of Hope,,,https://www.hcohcincy.com/,Email available (Cloudflare protected),513-898-9400,4565 E. Galbraith Rd.,Cincinnati,OH,45236,https://thevoiceofblackcincinnati.com/black-owned-business/the-headache-center-of-hope/
The Heyward Insurance Brokerage Group,,,https://www.heywardgroupllc.com/,Email available (Cloudflare protected),513-847-6456,7361 Kings Gate Way,West Chester,OH,45069,https://thevoiceofblackcincinnati.com/black-owned-business/the-heyward-group/
The Jazz Spoon,,,https://tmt.spotapps.co/private-parties?spot_id=119431&callback_url=http%3A%2F%2Fthejazzspoon.com%2F&_gl=1%2a1vy04qc%2a_ga%2aOTc2Njc0NjIuMTc1OTg0MjMxMQ..%2a_ga_VG24VK2VKT%2aczE3NTk4NDYxNjAkbzIkZzEkdDE3NTk4NDcyOTUkajYwJGwwJGgw%2a_ga_KTY58DY5TL%2aczE3NTk4NDYxNjAkbzIkZzEkdDE3NTk4NDcyOTUkajYwJGwwJGgw,Email available (Cloudflare protected),513-851-8100,610 Northland Blvd,Cincinnati,OH,45240,https://thevoiceofblackcincinnati.com/black-owned-business/the-jazz-spoon/
The Lash Experience by Marie,,,https://the-lash-experience-by-marie.square.site/,Email available (Cloudflare protected),513-259-5129,1243 Main Street,Cincinnati,OH,45202,https://thevoiceofblackcincinnati.com/black-owned-business/the-lash-experience-by-marie/
The Law Office of John M. Williams,,,https://jmwilliamslaw.com/,Email available (Cloudflare protected),513-791-7919,5128 Montgomery Road,Cincinnati,OH,45212,https://thevoiceofblackcincinnati.com/black-owned-business/the-law-office-of-john-m-williams/
The Linq Event Center,,,https://www.linqcincy.com/,Email available (Cloudflare protected),513-540-1417,310 W. Crescentville,West Chester,OH,45246,https://thevoiceofblackcincinnati.com/black-owned-business/the-linq-event-center/
The Passion Plate,,,https://www.thepassionplate.com/,Email available (Cloudflare protected),513-293-9075,1719 Elm Street,Cincinnati,OH,45202,https://thevoiceofblackcincinnati.com/black-owned-business/the-passion-plate/
The Reflective Lotus,,,https://reflectivelotus.com/,Email available (Cloudflare protected),(513) 813-7155,824 Madison Avenue,Covington,KY,41011,https://thevoiceofblackcincinnati.com/black-owned-business/the-reflective-lotus/
The STEM Lab,,,http://www.cincystemlab.com,Email available (Cloudflare protected),513-857-3366,11223 Cornell Park Drive,Blue Ash,OH,45242,https://thevoiceofblackcincinnati.com/black-owned-business/the-stem-lab/
The Sweet Place,,,http://thesweetplacebakery.com,Email available (Cloudflare protected),513-221-1370,2910 Short Vine Street,Cincinnati,OH,45219,https://thevoiceofblackcincinnati.com/black-owned-business/the-sweet-place/
The Tot Spot Childcare Center,,,https://www.facebook.com/thespotenrichment?mibextid=JRoKGi,Email available (Cloudflare protected),(513) 259-4632,3128 Losantiville Ave,Cincinnati,OH,45213,https://thevoiceofblackcincinnati.com/black-owned-business/the-tot-spot/
The Voice of Your Customer,,,https://www.thevoiceofyourcustomer.com,Email available (Cloudflare protected),513-281-3228,2259 Gilbert Avenue,Cincinnati,OH,45206,https://thevoiceofblackcincinnati.com/black-owned-business/the-voice-of-your-customer/
The William Frances Theatre Event Center,,,https://www.thewilliamsfrancestheatre.com/,Email available (Cloudflare protected),513-364-8734,6819 Vine Street,Cincinnati,OH,45216,https://thevoiceofblackcincinnati.com/black-owned-business/the-william-frances-theatre/
The Wilson Law Practice,,,https://www.facebook.com/mywilsonlaw/,Email available (Cloudflare protected),513-984-6050,9078 Union Centre Blvd,West Chester Township,OH,45069,https://thevoiceofblackcincinnati.com/black-owned-business/the-wilson-law-practice/
Tomaro's Memories Skincare,,,https://www.facebook.com/tomarosmemoriesskincare/,Email available (Cloudflare protected),513-448-6461,230 Northland Blvd.,Cincinnati,OH,45246,https://thevoiceofblackcincinnati.com/black-owned-business/tomaros-memories-skincare/
Tome Books and Novelteas,,,https://www.tomebooksandnovelteas.com/,Email available (Cloudflare protected),513-376-9790,6089 Salem Road,Cincinnati,OH,45230,https://thevoiceofblackcincinnati.com/black-owned-business/tome-books-and-novelteas/
Too Cool Cleaning Services,,,https://www.facebook.com/people/Too-Cool-Cleaning-Services/100091562205454/,Email available (Cloudflare protected),(513) 202-3061,126 E 6TH ST,Cincinnati,OH,45202,https://thevoiceofblackcincinnati.com/black-owned-business/too-cool-cleaning-services/
Total Training Services,,,http://www.totaltrainingservicesllc.com/,Email available (Cloudflare protected),513-376-8473,Multiple Locations,Cincinnati,OH,,https://thevoiceofblackcincinnati.com/black-owned-business/total-training-services/
Touch of Heaven Floral Shoppe,,,https://www.touch-heaven.com,Email available (Cloudflare protected),513-522-7673,7626 Hamilton Ave,Mount Healthy,OH,45231,https://thevoiceofblackcincinnati.com/black-owned-business/touch-of-heaven-floral/
Tracy’s Eat Off the Floor Cleaning Services,,,https://tracyseatoffthefloorcleaningservice.com/,Email available (Cloudflare protected),513-614-1641,937 Windsor Street,Cincinnati,OH,45206,https://thevoiceofblackcincinnati.com/black-owned-business/tracys-eat-off-the-floor-cleaning-services/
Transformations Health Services,,,https://www.transformationshs.com/,Email available (Cloudflare protected),(513) 347-0375,3650 Muddy Creek Road,Cincinnati,OH,45238,https://thevoiceofblackcincinnati.com/black-owned-business/transformations-health-services/
Transworld Supply Network,,,https://www.transworldsn.com,Email available (Cloudflare protected),(513) 229-7595,6576 Rosewood Lane,Mason,OH,45040,https://thevoiceofblackcincinnati.com/black-owned-business/transworld-supply-network/
Traveling Seniors Transportation,,,https://www.facebook.com/Travelingsrtrans/,Email available (Cloudflare protected),513-708-9759,3428 Woodford Rd. #6,Cincinnati,OH,45227,https://thevoiceofblackcincinnati.com/black-owned-business/traveling-seniors-transportation/
Treasured Locks Beauty Supply,,,https://www.treasuredlocks.com/,Email available (Cloudflare protected),513-400-5948,9568 Atchison Court,West Chester,OH,45069,https://thevoiceofblackcincinnati.com/black-owned-business/treasured-locks/
Trendy Elite,,,http://www.trendyelitellc.com,Email available (Cloudflare protected),513-486-5881,PO Box 53849,Cincinnati,OH,45253,https://thevoiceofblackcincinnati.com/black-owned-business/trendy-elite/
TriHealth Women’s- Finneytown OBGYN,,,http://www.laneobgyn.com,Email available (Cloudflare protected),513-242-0100,740 Galbraith Road,Cincinnati,OH,45231,https://thevoiceofblackcincinnati.com/black-owned-business/trihealth-womens-finneytown-obgyn/
Trio Enterprises,,,https://trioenterprises.com,Email available (Cloudflare protected),513-679-7100,7750 Reinhold Drive,Cincinnati,OH,45237,https://thevoiceofblackcincinnati.com/black-owned-business/trio-enterprises/
Triversity Construction Company,,,https://www.trivc.com/,Email available (Cloudflare protected),513-733-0046,921 Curtis Street,Cincinnati,OH,45206,https://thevoiceofblackcincinnati.com/black-owned-business/triversity/
True Calling Counseling,,,http://www.truecallingccs.com,Email available (Cloudflare protected),(513) 242-0076,891 W. North Bend Road,Cincinnati,OH,45224,https://thevoiceofblackcincinnati.com/black-owned-business/true-calling-counseling/
Trustus Maintenance and Janitorial,,,https://www.facebook.com/Trustus-Maintenance-Janitorial-LLC-104582628169844/,Email available (Cloudflare protected),513-200-8427,11989 Rich Rd,Loveland,OH,45140,https://thevoiceofblackcincinnati.com/black-owned-business/trustus-maintenance-and-janitorial/
"Turkeys ""R"" Us BBQ Food Truck",,,https://www.facebook.com/TurkeysrusBBQ/,Email available (Cloudflare protected),513-402-4004,Multiple Locations,,OH,,https://thevoiceofblackcincinnati.com/black-owned-business/turkeysrus/
Twelve15 Design Studio,,,https://www.twelve15designstudio.com,Email available (Cloudflare protected),513-913-2665,1435 Vine Street,Cincinnati,OH,45202,https://thevoiceofblackcincinnati.com/black-owned-business/twelve15-design-studio/
Unified Business Solutions,,,http://www.unifiedbizsolutions.com,Email available (Cloudflare protected),513-234-7827,9435 Waterstone Blvd.,Cincinnati,OH,45249,https://thevoiceofblackcincinnati.com/black-owned-business/unified-business-solutions/
Unique Kayyture,,,https://uniquekayyture.bigcartel.com/,Email available (Cloudflare protected),513-503-3275,2805 Colerain Avenue,Cincinnati,OH,45225,https://thevoiceofblackcincinnati.com/black-owned-business/unique-kayyture/
Upgrade Counseling Services,,,https://www.upgradecounseling.com,Email available (Cloudflare protected),513-461-6551,10901 Reed Hartman Highway,Cincinnati,OH,45242,https://thevoiceofblackcincinnati.com/black-owned-business/upgrade-counseling-services/
Uptown Salon and Spa,,,https://uptown-salonandspa.com/,Email available (Cloudflare protected),513-242-7000,4939 Paddock Road,Cincinnati,OH,45237,https://thevoiceofblackcincinnati.com/black-owned-business/uptown-salon-and-spa/
Uzima Rejuvenation Station,,,https://www.uzimarejuvenation.com/,Email available (Cloudflare protected),513-278-7668,7743 Cox Lane,West Chester,OH,45069,https://thevoiceofblackcincinnati.com/black-owned-business/uzima-rejuvenation-station/
V. Randolph Brown Consulting,,,https://vrandolphbrown.com/index.html,Email available (Cloudflare protected),513-795-8588,1550 Magnolia Drive,Cincinnati,OH,45215,https://thevoiceofblackcincinnati.com/black-owned-business/v-randolph-brown-consulting/
VerticalPics Photography,,,http://www.VerticalPics.com,Email available (Cloudflare protected),513-916-1800,P.O. Box 18765,Fairfield,OH,45018,https://thevoiceofblackcincinnati.com/black-owned-business/verticalpics/
"Victory Medical Alliance, LLC",,,https://victorymedalliance.com/,Email available (Cloudflare protected),(513) 257-5762,"6077 Far Hills Avenue, Suite 131",Centerville,OH,45459,https://thevoiceofblackcincinnati.com/black-owned-business/victory-medical-alliance/
VIP Specialty Haircuts,,,https://vip-specialty-hair-cuts.square.site/?src=g-icon,Email available (Cloudflare protected),(812) 557-9375,2028 Florence Mall,Florence,KY,41042,https://thevoiceofblackcincinnati.com/black-owned-business/vip-specialty-cuts/
"Virtue Painting, Inc.",,,https://virtue-painting.com/,Email available (Cloudflare protected),(513) 225-1129,2909 Henshaw Ave,Cincinnati,OH,45225,https://thevoiceofblackcincinnati.com/black-owned-business/virtue-painting/
Walker Funeral Home,,,https://www.herbwalker.com/wkl,Email available (Cloudflare protected),513-251-6200,2625 Gilbert Avenue,Cincinnati,OH,45206,https://thevoiceofblackcincinnati.com/black-owned-business/walker-funeral-home/
Water Lily Learning Center,,,https://www.waterlilylearningcenter.com/,Email available (Cloudflare protected),513-808-9696,"3559 Reading Road, 45229",Cincinnati,OH,,https://thevoiceofblackcincinnati.com/black-owned-business/water-lily-learning-center/
We Do BBQ Food Truck,,,https://www.facebook.com/wedobbq513/,Email available (Cloudflare protected),513-709-9314,8070 Hamilton Ave,Cincinnati,OH,45231,https://thevoiceofblackcincinnati.com/black-owned-business/we-do-bbq/
We Outside Outdoor Adventures,,,https://www.swyaohio.com/,Email available (Cloudflare protected),513-966-3328,"207 Woodward St, Floor 1",Cincinnati,OH,45202,https://thevoiceofblackcincinnati.com/black-owned-business/we-outside/
Wesley Education Center and Preschool,,,https://www.wesleyed.org/,Email available (Cloudflare protected),513-845-7990,525 Hale Avenue,Cincinnati,OH,45229,https://thevoiceofblackcincinnati.com/black-owned-business/wesley-education-center/
Wheelwork Integrative Wellness Life Coaching,,,http://wheelworkwellness.com,Email available (Cloudflare protected),513-304-3872,PO Box 8434,Cincinnati,OH,45208,https://thevoiceofblackcincinnati.com/black-owned-business/wheelwork-integrative-wellness-cincinnati/
Willpower Contracting,,,http://willpowercontracting.com/,Email available (Cloudflare protected),513-620-4138,Delhi,Cincinnati,OH,45238,https://thevoiceofblackcincinnati.com/black-owned-business/willpower-contracting/
X. Wynn Films,,,https://www.xwynnfilms.com/,Email available (Cloudflare protected),513-614-7876,8721 Colerain Ave,Cincinnati,OH,45251,https://thevoiceofblackcincinnati.com/black-owned-business/x-wynn-films/
Xcell Building Construction and Maintenance,,,https://www.dnb.com/business-directory/company-profiles.xcell_building_maintenance_llc.5d073433f0b2561f486f7da8f548e47e.html,Email available (Cloudflare protected),513-461-4066,5245 Orchardridge Ct,Cincinnati,OH,45239,https://thevoiceofblackcincinnati.com/black-owned-business/xcell-building-construction/
Xceptional Training Center,,,http://facebook.com/xceptionaltrainingcenter,Email available (Cloudflare protected),513-679-7753,401 S. Cooper Ave,Cincinnati,OH,45215,https://thevoiceofblackcincinnati.com/black-owned-business/xceptional-training-center/
Yakitori Hibachi Restaurant,,,https://www.yakitorihibachilounge.com/,Email available (Cloudflare protected),513-818-8440,7505 Reading Road,Cincinnati,OH,45237,https://thevoiceofblackcincinnati.com/black-owned-business/yakitori-urban-hibachi-lounge/
Yard Vybz Nyaminz Jamaican Restaurant,,,https://www.yardvybznyaminz.com/,Email available (Cloudflare protected),513-644-2668,9536 Cincinnati Columbus Road,West Chester,OH,45241,https://thevoiceofblackcincinnati.com/black-owned-business/yard-vybz-nyaminz/
Yes We Can LLC General Contracting,,,https://www.facebook.com/profile.php?id=61567862518212,Email available (Cloudflare protected),513-497-2884,8000 Knollwood Lane,Cincinnati,OH,45224,https://thevoiceofblackcincinnati.com/black-owned-business/yes-we-can/
Your Design Partner,,,https://yourdesignpartner.com/,Email available (Cloudflare protected),513-409-3759,105 E Main Street,Mason,OH,45040,https://thevoiceofblackcincinnati.com/black-owned-business/your-design-partner-llc/
Your Priority Healthcare,,,http://www.yourpriorityhealthcare.com/,Email available (Cloudflare protected),513-807-8886,1375 Kemper Meadows Drive Suite 12,Cincinnati,OH,45240,https://thevoiceofblackcincinnati.com/black-owned-business/your-priority-health-care/
Zencinnati Wellness Studio,,,https://www.zencinnati.com/,Email available (Cloudflare protected),513-966-3328,1307 Main Street,Cincinnati,OH,5202,https://thevoiceofblackcincinnati.com/black-owned-business/zencinnati/
Zola's Avondale Cafe,,,https://zolacafe.com/,Email available (Cloudflare protected),513-429-5747,3539 Reading Rd Suite 105,Cincinnati,OH,45229,https://thevoiceofblackcincinnati.com/black-owned-business/zolas-avondale-cafe/
